{
   "type": "FeatureCollection",
   "features": [
  {
    "type": "Feature",
    "geometry": {
       "type": "Point",
       "coordinates":  [ 7.14471628161897,53.708546157615700 ]
    },
    "properties": {
    "id":1,
    "name":"Kaiser-Wilhelm-Denkmal",
    "category":"inselhighlights",
    "subcategory":"wahrzeichen",
    "description":"Das Kaiser-Wilhelm-Denkmal auf Norderney ist ein 13 Meter hoher Obelisk, der zwischen 1898 und 1899 zur Erinnerung an die Reichseinigung von 1871 und Kaiser Wilhelm I. errichtet wurde. Ursprunglich mit einer Bronzebuste und einem Reichsadler geschmuckt, symbolisiert das Denkmal heute mit einer Mowenskulptur die Verbundenheit zur Nordsee. Es besteht aus Steinen aus 75 deutschen Stadten, die symbolisch die Einheit des Deutschen Reichs darstellen.",
    "icon":"",
    "image":"https://cdn.prod.website-files.com/670661a65d47d9da870f3d66/678e465e09ed44a339a48692_Kaiser_Wilhelm_Denkmal_NOR.JPG",
    "address":"Knyphausenstrase 1A, 26548 Norderney",
    "opening hours":"Rund um die Uhr geoffnet",
    "tags":"",
    "features":"",
    "comments":930,
    "rating":"04. Apr",
    "price":"",
    "web":"",
    "menu":"",
    "phone":"",
    "facebook":"",
    "instagram":"",
    "booking":"",
    "suitability":"",
    "weather_condition":"",
    "popularity":""
    }
  },
  {
    "type": "Feature",
    "geometry": {
       "type": "Point",
       "coordinates":  [ 7.14942718072806,53.71232805261600 ]
    },
    "properties": {
    "id":45,
    "name":"Minigolf am Januskopf",
    "category":"freizeit",
    "subcategory":"outdoor_aktivitaeten",
    "description":"Minigolf am Januskopf bietet Spas und Unterhaltung fur die ganze Familie inmitten einer malerischen Umgebung. Die liebevoll gestaltete Anlage liegt unweit des Strandes und begeistert mit abwechslungsreichen Bahnen, die sowohl fur Anfanger als auch fur geubte Spieler eine Herausforderung darstellen. Wahrend der Spielpausen konnen Sie die frische Nordseeluft geniesen und die Aussicht auf die umliegende Natur bewundern. Ob als entspannter Zeitvertreib oder als sportlicher Wettkampf - eine Runde Minigolf am Januskopf ist die perfekte Freizeitaktivitat fur Gros und Klein. ",
    "icon":"",
    "image":"https://cdn.prod.website-files.com/670661a65d47d9da870f3d66/679b246a79e9e11c06b10f25_Minigolf.jpg",
    "address":"Am Januskopf, 26548 Norderney",
    "opening hours":"",
    "tags":"",
    "features":"",
    "comments":null,
    "rating":"",
    "price":"Pro Person: 6€, Kinder bis 10 Jahre: 5€",
    "web":"https://www.norderney.cc/minigolf-auf-norderney",
    "menu":"",
    "phone":"",
    "facebook":"",
    "instagram":"",
    "booking":"",
    "suitability":"",
    "weather_condition":"",
    "popularity":""
    }
  },
  {
    "type": "Feature",
    "geometry": {
       "type": "Point",
       "coordinates":  [ 7.161882,53.6985646 ]
    },
    "properties": {
    "id":2,
    "name":"Watt Welten",
    "category":"inselhighlights",
    "subcategory":"museen",
    "description":"Das Watt Welten UNESCO-Weltnaturerbe Wattenmeer - Besucherzentrum am Hafen ladt kleine und grose Gaste ein, die faszinierende Welt des Wattenmeeres spielerisch zu erkunden. Besucher konnen Tiere aus nachster Nahe beobachten, virtuell Dunen entstehen lassen oder im Inselgarten sprechende Pflanzen erleben. Mit interaktiven Ausstellungen und spannenden Ratseln wird der einzigartige Lebensraum des Wattenmeeres lebendig.",
    "icon":"",
    "image":"https://cdn.prod.website-files.com/670661a65d47d9da870f3d66/67939f7170397c9f7355d962_Watt-Welten.webp",
    "address":"Am Hafen 2, 26548 Norderney",
    "opening hours":"taglich, 10:00 - 17:00; montags geschlossen",
    "tags":"",
    "features":"",
    "comments":717,
    "rating":"04. Mrz",
    "price":"",
    "web":"",
    "menu":"",
    "phone":"",
    "facebook":"",
    "instagram":"",
    "booking":"https://www.tickets.wattwelten.de/",
    "suitability":"",
    "weather_condition":"",
    "popularity":""
    }
  },
  {
    "type": "Feature",
    "geometry": {
       "type": "Point",
       "coordinates":  [ 7.1567671,53.7085498 ]
    },
    "properties": {
    "id":3,
    "name":"Wasserturm Norderney",
    "category":"inselhighlights",
    "subcategory":"wahrzeichen",
    "description":"Der 46,2 Meter hohe, denkmalgeschutzte Wasserturm Norderney mit seinen faszinierenden Klinkerornamenten und einer Aussichtsplattform speichert 500.000 Liter Trinkwasser und bietet einen spektakularen Blick uber die Insel und ihre Nachbarn.",
    "icon":"",
    "image":"https://cdn.prod.website-files.com/670661a65d47d9da870f3d66/678eb20c299ec0c9bbadc6a5_Norderney_Wasserturm.jpg",
    "address":"Am Wasserturm 9, 26548 Norderney",
    "opening hours":"Rund um die Uhr geoffnet",
    "tags":"",
    "features":"",
    "comments":58,
    "rating":"04. Apr",
    "price":"",
    "web":"",
    "menu":"",
    "phone":"",
    "facebook":"",
    "instagram":"",
    "booking":"",
    "suitability":"",
    "weather_condition":"",
    "popularity":""
    }
  },
  {
    "type": "Feature",
    "geometry": {
       "type": "Point",
       "coordinates":  [ 7.1448387,53.7110066 ]
    },
    "properties": {
    "id":4,
    "name":"Historischer Stockanker Georgshohe",
    "category":"inselhighlights",
    "subcategory":"aussichtspunkte",
    "description":"Auf der Georgshohe, unweit der Dunen von Norderney, thront ein beeindruckender historischer Stockanker, der an die maritime Geschichte der Insel erinnert. Dieser imposante Anker wurde einst von einem grosen Segelschiff genutzt und spater als Denkmal aufgestellt. Heute ist er ein beliebtes Fotomotiv und ein Zeugnis der Seefahrtstradition, die eng mit der Geschichte Norderneys verbunden ist.",
    "icon":"",
    "image":"https://cdn.prod.website-files.com/670661a65d47d9da870f3d66/6793749976c8611efdd9ba4e_Georgshoehe.webp",
    "address":"Kaiserstrase 28, 26548 Norderney",
    "opening hours":"Rund um die Uhr geoffnet",
    "tags":"",
    "features":"",
    "comments":134,
    "rating":"04. Jul",
    "price":"",
    "web":"",
    "menu":"",
    "phone":"",
    "facebook":"",
    "instagram":"",
    "booking":"",
    "suitability":"",
    "weather_condition":"",
    "popularity":""
    }
  },
  {
    "type": "Feature",
    "geometry": {
       "type": "Point",
       "coordinates":  [ 7.1591012,53.7113202 ]
    },
    "properties": {
    "id":5,
    "name":"Kap Norderney (Bake)",
    "category":"inselhighlights",
    "subcategory":"wahrzeichen",
    "description":"Das Kap Norderney, auch als Bake bekannt, ist ein markantes Seezeichen und Wahrzeichen der Insel. Ursprunglich 1848 errichtet, diente die 17 Meter hohe Holzstruktur jahrzehntelang als Navigationshilfe fur die Schifffahrt. Heute steht die Bake nicht nur als technisches Denkmal, sondern auch als Symbol fur die maritime Vergangenheit Norderneys und bietet Besuchern ein beeindruckendes Fotomotiv vor der Kulisse der Nordsee.",
    "icon":"",
    "image":"https://cdn.prod.website-files.com/670661a65d47d9da870f3d66/678f5b3617e55e54a4857857_Kap.webp",
    "address":"Am Kap 13A, 26548 Norderney",
    "opening hours":"Rund um die Uhr geoffnet",
    "tags":"",
    "features":"",
    "comments":643,
    "rating":"04. Mai",
    "price":"",
    "web":"",
    "menu":"",
    "phone":"",
    "facebook":"",
    "instagram":"",
    "booking":"",
    "suitability":"",
    "weather_condition":"",
    "popularity":""
    }
  },
  {
    "type": "Feature",
    "geometry": {
       "type": "Point",
       "coordinates":  [ 7.16432809829711,53.71403121948240 ]
    },
    "properties": {
    "id":6,
    "name":"Thalasso Plattform am Nordstrand",
    "category":"inselhighlights",
    "subcategory":"aussichtspunkte",
    "description":"Die Thalasso-Plattform am Nordstrand von Norderney ist ein einzigartiger Ort, um die Kraft des Meeres hautnah zu erleben. Hier konnen Besucher das heilende Klima der Nordsee geniesen, entspannen und die unendliche Weite des Meeres auf sich wirken lassen. Die Plattform ist Teil des Thalasso-Konzepts der Insel, das Gesundheit und Wohlbefinden mit der Natur verbindet - ein idealer Platz, um Korper und Geist zu starken.",
    "icon":"",
    "image":"https://cdn.prod.website-files.com/670661a65d47d9da870f3d66/678f5b36aff28f7d1f96f925_Norderney-Thalasso-Nordstrand.jpg",
    "address":"Emsstrase 14, 26548 Norderney",
    "opening hours":"Rund um die Uhr geoffnet",
    "tags":"",
    "features":"",
    "comments":61,
    "rating":"04. Jul",
    "price":"",
    "web":"",
    "menu":"",
    "phone":"",
    "facebook":"",
    "instagram":"",
    "booking":"",
    "suitability":"",
    "weather_condition":"",
    "popularity":""
    }
  },
  {
    "type": "Feature",
    "geometry": {
       "type": "Point",
       "coordinates":  [ 7.169699,53.7105238 ]
    },
    "properties": {
    "id":7,
    "name":"Bahnhof Stelldichein",
    "category":"inselhighlights",
    "subcategory":"wahrzeichen",
    "description":"Der Bahnhof Stelldichein auf Norderney ist ein historisches Relikt aus der Zeit, als Pferdebahnen die Insel durchquerten. Ursprunglich als Wartehauschen fur Fahrgaste errichtet, dient das charmante Gebaude heute als nostalgisches Denkmal. Es erinnert an die Anfange des Tourismus auf Norderney und ist ein beliebter Halt fur Spazierganger, die die historische Atmosphare der Insel erleben mochten.",
    "icon":"",
    "image":"https://cdn.prod.website-files.com/670661a65d47d9da870f3d66/678f5b3780af505a114465d3_Norderney_Bahnhof_Stelldichein.jpg",
    "address":"Birkenweg 6, 26548 Norderney",
    "opening hours":"Rund um die Uhr geoffnet",
    "tags":"",
    "features":"",
    "comments":196,
    "rating":"04. Mai",
    "price":"",
    "web":"",
    "menu":"",
    "phone":"",
    "facebook":"",
    "instagram":"",
    "booking":"",
    "suitability":"",
    "weather_condition":"",
    "popularity":""
    }
  },
  {
    "type": "Feature",
    "geometry": {
       "type": "Point",
       "coordinates":  [ 7.183749753157490,53.70915512475620 ]
    },
    "properties": {
    "id":8,
    "name":"Thalassoplattform am alten Postweg",
    "category":"inselhighlights",
    "subcategory":"aussichtspunkte",
    "description":"Die Thalasso-Plattform am Alten Postweg ist ein idyllischer Ruckzugsort mitten in der Natur von Norderney. Umgeben von Dunen und Ruhe, bietet sie die perfekte Gelegenheit, die wohltuende Seeluft tief einzuatmen und das einzigartige Thalasso-Klima zu geniesen. Mit Blick auf die unberuhrte Landschaft ladt die Plattform zum Entspannen und Verweilen ein - ein idealer Ort fur Erholung und Achtsamkeit inmitten der Inselnatur.",
    "icon":"",
    "image":"https://cdn.prod.website-files.com/670661a65d47d9da870f3d66/6793e802abe17199c086e136_Postweg.jpeg",
    "address":"Am Alten Postweg, 26548 Norderney",
    "opening hours":"Rund um die Uhr geoffnet",
    "tags":"",
    "features":"",
    "comments":107,
    "rating":"04. Aug",
    "price":"",
    "web":"",
    "menu":"",
    "phone":"",
    "facebook":"",
    "instagram":"",
    "booking":"",
    "suitability":"",
    "weather_condition":"",
    "popularity":""
    }
  },
  {
    "type": "Feature",
    "geometry": {
       "type": "Point",
       "coordinates":  [ 7.202837436552360,53.71377649992330 ]
    },
    "properties": {
    "id":9,
    "name":"Thalassoplattform am Dunensender",
    "category":"inselhighlights",
    "subcategory":"aussichtspunkte",
    "description":"Die Thalasso-Plattform am Dunensender bietet eine atemberaubende Aussicht auf die Dunenlandschaft Norderneys und die Weite der Nordsee. Hier konnen Besucher die Ruhe der Natur geniesen, die frische, salzhaltige Luft inhalieren und die heilende Wirkung des Thalasso-Klimas erleben. Die Plattform ladt dazu ein, innezuhalten, die Umgebung auf sich wirken zu lassen und die Verbindung zwischen Mensch und Natur zu spuren.",
    "icon":"",
    "image":"https://cdn.prod.website-files.com/670661a65d47d9da870f3d66/6793e80106f58cd3068d91ca_Dunensender.jpg",
    "address":"Am Dunensender, 26548 Norderney",
    "opening hours":"Rund um die Uhr geoffnet",
    "tags":"",
    "features":"",
    "comments":368,
    "rating":"04. Aug",
    "price":"",
    "web":"",
    "menu":"",
    "phone":"",
    "facebook":"",
    "instagram":"",
    "booking":"",
    "suitability":"",
    "weather_condition":"",
    "popularity":""
    }
  },
  {
    "type": "Feature",
    "geometry": {
       "type": "Point",
       "coordinates":  [ 7.1996916,53.7167415 ]
    },
    "properties": {
    "id":10,
    "name":"Weisse Dune Strand Norderney",
    "category":"inselhighlights",
    "subcategory":"straende",
    "description":"Der Strand Weise Dune auf Norderney ist ein echtes Naturparadies mit feinem, weisen Sand und unberuhrter Dunenlandschaft. Dieser ruhige Abschnitt der Insel bietet die perfekte Kulisse fur entspannte Strandtage, lange Spaziergange und erholsame Stunden inmitten der Nordsee-Natur. Das nahegelegene Restaurant \"Weise Dune\" rundet das Erlebnis mit kulinarischen Kostlichkeiten und einem unvergleichlichen Blick auf die Dunen ab - ein Highlight fur alle Sinne!",
    "icon":"",
    "image":"https://cdn.prod.website-files.com/670661a65d47d9da870f3d66/678f5b37174c45168510e4fa_Norderney_WeisseD%C3%BCne.webp",
    "address":"Weise Dune, 26548 Norderney",
    "opening hours":"Rund um die Uhr geoffnet",
    "tags":"",
    "features":"",
    "comments":494,
    "rating":"04. Jun",
    "price":"",
    "web":"",
    "menu":"",
    "phone":"",
    "facebook":"",
    "instagram":"",
    "booking":"",
    "suitability":"",
    "weather_condition":"",
    "popularity":""
    }
  },
  {
    "type": "Feature",
    "geometry": {
       "type": "Point",
       "coordinates":  [ 7.2299707,53.7099675 ]
    },
    "properties": {
    "id":11,
    "name":"Leuchtturm Norderney",
    "category":"inselhighlights",
    "subcategory":"sehenswuerdigkeiten",
    "description":"Der Leuchtturm Norderney ist eines der bekanntesten Wahrzeichen der Insel und ein beeindruckendes Stuck maritimer Geschichte. Mit seiner Hohe von 54 Metern bietet er einen atemberaubenden Panoramablick uber die Nordsee, die Insel und das umliegende Wattenmeer. 1874 erbaut, diente er uber ein Jahrhundert lang als Orientierungspunkt fur die Schifffahrt. Heute ist der Leuchtturm ein beliebtes Ausflugsziel und ein Muss fur alle, die Norderney von oben erleben mochten.",
    "icon":"",
    "image":"https://cdn.prod.website-files.com/670661a65d47d9da870f3d66/6793a03c36107a2fb5ae68e9_Norderneyer-Leuchtturm.jpg",
    "address":"Am Leuchtturm 2, 26548 Norderney",
    "opening hours":"taglich, 14:00 - 16:00",
    "tags":"",
    "features":"",
    "comments":3098,
    "rating":"04. Apr",
    "price":"",
    "web":"",
    "menu":"",
    "phone":"",
    "facebook":"",
    "instagram":"",
    "booking":"",
    "suitability":"",
    "weather_condition":"",
    "popularity":""
    }
  },
  {
    "type": "Feature",
    "geometry": {
       "type": "Point",
       "coordinates":  [ 7.3019713,53.7165876 ]
    },
    "properties": {
    "id":12,
    "name":"\"Mowendune\"",
    "category":"inselhighlights",
    "subcategory":"aussichtspunkte",
    "description":"Die \"Mowendune\" auf Norderney ist ein malerischer Naturplatz, der durch seine ruhige Lage und beeindruckende Dunenlandschaft besticht. Dieser Ort ist ideal, um die heimische Tierwelt, insbesondere die namensgebenden Mowen, zu beobachten und die unberuhrte Schonheit der Insel zu geniesen. Ob fur eine kleine Wanderung oder einen Moment der Stille - die Mowendune ist ein perfekter Ruckzugsort mitten in der Natur Norderneys.",
    "icon":"",
    "image":"https://cdn.prod.website-files.com/670661a65d47d9da870f3d66/6793e801e865c374d25bc2c4_mowendune.jpg",
    "address":"26548 Norderney",
    "opening hours":"Rund um die Uhr geoffnet",
    "tags":"",
    "features":"",
    "comments":80,
    "rating":"04. Jul",
    "price":"",
    "web":"",
    "menu":"",
    "phone":"",
    "facebook":"",
    "instagram":"",
    "booking":"",
    "suitability":"",
    "weather_condition":"",
    "popularity":""
    }
  },
  {
    "type": "Feature",
    "geometry": {
       "type": "Point",
       "coordinates":  [ 7.345751388072430,53.71940966740350 ]
    },
    "properties": {
    "id":13,
    "name":"Wrack am Ostende",
    "category":"inselhighlights",
    "subcategory":"wahrzeichen",
    "description":"Das Wrack am Ostende von Norderney ist ein faszinierendes Relikt, das von der Geschichte der Schifffahrt und den Herausforderungen der Nordsee erzahlt. Vermutlich handelt es sich um die Uberreste der \"Pallas\", einem Frachtschiff, das 1930 vor der Insel strandete. Eingebettet in die Dunen und nur bei Ebbe zuganglich, ist das Wrack ein beliebtes Ziel fur Wattwanderer und Fotografen. Wind, Wetter und Meer haben die Uberreste stark gezeichnet, wodurch sie eine besondere, mystische Ausstrahlung erhalten. Das Wrack steht sinnbildlich fur die Gefahren der Seefahrt und die Kraft der Natur, die das Leben auf der Insel seit jeher pragen.",
    "icon":"",
    "image":"https://cdn.prod.website-files.com/670661a65d47d9da870f3d66/678f5b371def67972a833a0f_Wrack.webp",
    "address":"26548 Norderney",
    "opening hours":"Rund um die Uhr geoffnet",
    "tags":"",
    "features":"",
    "comments":641,
    "rating":"04. Mai",
    "price":"",
    "web":"",
    "menu":"",
    "phone":"",
    "facebook":"",
    "instagram":"",
    "booking":"",
    "suitability":"",
    "weather_condition":"",
    "popularity":""
    }
  },
  {
    "type": "Feature",
    "geometry": {
       "type": "Point",
       "coordinates":  [ 7.1439433097839300,53.70206832885740 ]
    },
    "properties": {
    "id":14,
    "name":"Bademuseum Norderney",
    "category":"inselhighlights",
    "subcategory":"museen",
    "description":"Das Museum Nordseeheilbad Norderney, auch als Bademuseum bekannt, entfuhrt Besucher in die spannende Geschichte des Seebads und der Badekultur. Gelegen in einem historischen Gebaude, zeigt die Ausstellung, wie sich Norderney vom Fischerdorf zum ersten deutschen Nordseeheilbad entwickelte. Originale Exponate, historische Fotografien und interaktive Stationen beleuchten die Anfange des Badelebens, die Rolle der Insel in der Heilmedizin und das mondane Leben der damaligen Gaste. Das Museum ist ein kulturelles Highlight fur alle, die mehr uber die traditionsreiche Geschichte Norderneys erfahren mochten.",
    "icon":"",
    "image":"https://cdn.prod.website-files.com/670661a65d47d9da870f3d66/67937495e22f1579fcef64d2_bademuseum_norderney_2.jpg",
    "address":"Poppe-Folkerts-Weg 3b, 26548 Norderney",
    "opening hours":"",
    "tags":"",
    "features":"",
    "comments":349,
    "rating":"04. Mai",
    "price":"",
    "web":"https://www.museum-norderney.de/",
    "menu":"",
    "phone":"",
    "facebook":"",
    "instagram":"",
    "booking":"",
    "suitability":"",
    "weather_condition":"",
    "popularity":""
    }
  },
  {
    "type": "Feature",
    "geometry": {
       "type": "Point",
       "coordinates":  [ 7.1441855,53.7033856 ]
    },
    "properties": {
    "id":15,
    "name":"Fischerhaus-Museum",
    "category":"inselhighlights",
    "subcategory":"museen",
    "description":"Das Fischerhaus-Museum auf Norderney ist das alteste erhaltene Wohnhaus der Insel und ein einzigartiges Zeugnis der Lebensweise fruherer Insulaner. Erbaut im 18. Jahrhundert, beherbergt das liebevoll restaurierte Gebaude eine Ausstellung zur Geschichte der Fischerei, des Insellebens und der Seefahrt. Besucher konnen originale Einrichtungsgegenstande, Werkzeuge und historische Dokumente entdecken, die einen lebendigen Einblick in das harte Leben der Fischerfamilien geben. Das Fischerhaus-Museum ist ein besonderer Ort, der die Ursprunge und Traditionen der Insel Norderney eindrucksvoll bewahrt.",
    "icon":"",
    "image":"https://cdn.prod.website-files.com/670661a65d47d9da870f3d66/679374932a3f24a10d1f1819_Fischerhaus-Museum.webp",
    "address":"Weststrandstrase 1, 26548 Norderney",
    "opening hours":"",
    "tags":"",
    "features":"",
    "comments":62,
    "rating":"04. Jun",
    "price":"",
    "web":"http://www.heimatverein-norderney.de/index.php/oeffnungszeiten.html",
    "menu":"",
    "phone":"",
    "facebook":"",
    "instagram":"",
    "booking":"",
    "suitability":"",
    "weather_condition":"",
    "popularity":""
    }
  },
  {
    "type": "Feature",
    "geometry": {
       "type": "Point",
       "coordinates":  [ 7.1484011,53.7089238 ]
    },
    "properties": {
    "id":16,
    "name":"Poppe-Folkerts-Museum",
    "category":"inselhighlights",
    "subcategory":"museen",
    "description":"Die Fordergemeinschaft Poppe-Folkerts-Museum Norderney e.V. setzt sich fur die Bewahrung und Prasentation des Werks von Poppe Folkerts, einem der bedeutendsten Kunstler der Insel, ein. Folkerts war fur seine maritimen Gemalde bekannt, die die raue Schonheit der Nordsee und die Landschaft Norderneys eindrucksvoll einfangen. Die Fordergemeinschaft unterstutzt Ausstellungen, pflegt das kunstlerische Erbe und bietet Interessierten einen Einblick in das Leben und Schaffen dieses ausergewohnlichen Malers. Das Museum ist ein kultureller Schatz fur Kunstliebhaber und ein besonderer Anziehungspunkt auf Norderney.",
    "icon":"",
    "image":"https://cdn.prod.website-files.com/670661a65d47d9da870f3d66/678f5b3793795981b30e32ea_Norderney_Poppe.jpg",
    "address":"Luciusstr. 24, 26548 Norderney",
    "opening hours":"",
    "tags":"",
    "features":"",
    "comments":1,
    "rating":"1",
    "price":"",
    "web":"poppe-folkerts-museum.de",
    "menu":"",
    "phone":"",
    "facebook":"",
    "instagram":"",
    "booking":"",
    "suitability":"",
    "weather_condition":"",
    "popularity":""
    }
  },
  {
    "type": "Feature",
    "geometry": {
       "type": "Point",
       "coordinates":  [ 7.1555705070495600,53.7064208984375 ]
    },
    "properties": {
    "id":17,
    "name":"Spielpark Kap Hoorn",
    "category":"freizeit",
    "subcategory":"indoor",
    "description":"Auch bei schlechtem Wetter kommt im Spielpark keine Langeweile auf. Der Innenbereich bietet wetterunabhangige Spielmoglichkeiten wie eine Indoor-Kletteranlage, kreative Spielecken und einen Cafebereich, in dem Eltern bei einer Tasse Kaffee entspannen konnen. Hier steht alles bereit, um Kindern eine spannende Zeit zu bieten - unabhangig von der Witterung.",
    "icon":"",
    "image":"https://cdn.prod.website-files.com/670661a65d47d9da870f3d66/6793a0b41f3083c3412c1a9f_norderney-spielpark-indoor.jpg",
    "address":"Muhlenstrase 20, 26548 Norderney",
    "opening hours":"taglich, 10:00 - 18:00 Uhr",
    "tags":"",
    "features":"",
    "comments":null,
    "rating":"",
    "price":"kostenlos",
    "web":"",
    "menu":"",
    "phone":"",
    "facebook":"",
    "instagram":"",
    "booking":"",
    "suitability":"",
    "weather_condition":"",
    "popularity":""
    }
  },
  {
    "type": "Feature",
    "geometry": {
       "type": "Point",
       "coordinates":  [ 7.164587508163760,53.70732733403140 ]
    },
    "properties": {
    "id":18,
    "name":"Wattwanderungen ",
    "category":"freizeit",
    "subcategory":"outdoor",
    "description":"Die Wattwanderungen auf Norderney bieten ein einmaliges Naturerlebnis im UNESCO-Weltnaturerbe Wattenmeer. Unter der Fuhrung erfahrener Wattfuhrer entdecken Besucher die faszinierende Welt zwischen Ebbe und Flut. Dabei lernen sie spannende Fakten uber die einzigartigen Lebensraume, Tiere wie Wattwurmer, Krebse und Vogel sowie die Bedeutung des Watts fur die Nordsee. Ob Familien, Paare oder Alleinreisende - eine Wattwanderung ist ein besonderes Abenteuer, das Nahe zur Natur und unvergessliche Eindrucke garantiert. Fur alle Touren sind wetterfeste Kleidung und festes Schuhwerk empfohlen!",
    "icon":"",
    "image":"https://cdn.prod.website-files.com/670661a65d47d9da870f3d66/67939f71408edb8b22c81696_watt-wanderung.webp",
    "address":"Am Hafen 2, 26548 Norderney",
    "opening hours":"",
    "tags":"",
    "features":"",
    "comments":null,
    "rating":"",
    "price":"",
    "web":"https://www.nationalparkhaus-wattenmeer.de/watt-welten-unesco-weltnaturerbe-wattenmeer-besucherzentrum-norderney/wattfuehrungen",
    "menu":"",
    "phone":"",
    "facebook":"",
    "instagram":"",
    "booking":"https://www.tickets.wattwelten.de/",
    "suitability":"",
    "weather_condition":"",
    "popularity":""
    }
  },
  {
    "type": "Feature",
    "geometry": {
       "type": "Point",
       "coordinates":  [ 7.1686945,53.7027975 ]
    },
    "properties": {
    "id":19,
    "name":"Surfschule Norderney",
    "category":"freizeit",
    "subcategory":"wassersport",
    "description":"Die Surfschule Norderney ist die perfekte Anlaufstelle fur Wassersportfans, egal ob Anfanger oder Fortgeschrittene. Hier konnen Sie Windsurfen, Kitesurfen, Wellenreiten, Stand-Up-Paddling und Kajakfahren erlernen oder Ihre Fahigkeiten ausbauen. Die Schule bietet eine breite Auswahl an Kursen, von Schnupperstunden bis hin zu intensiven Trainings, sowie professionelles Equipment zum Verleih. Mit erfahrenen Lehrern und der einzigartigen Kulisse der Nordsee wird jeder Tag auf dem Wasser zu einem besonderen Erlebnis. Ein Muss fur alle, die Action und Spas auf Norderney suchen!",
    "icon":"",
    "image":"https://cdn.prod.website-files.com/670661a65d47d9da870f3d66/67939f71a5aab48fe94e6e83_Surfer.jpg",
    "address":"Am Hafen 17 · 26548 Norderney",
    "opening hours":"",
    "tags":"",
    "features":"",
    "comments":null,
    "rating":"",
    "price":"",
    "web":"https://www.surfschule-norderney.de/",
    "menu":"",
    "phone":"04932 648",
    "facebook":"https://www.facebook.com/Surfschule.Norderney",
    "instagram":"https://www.instagram.com/surfschule_norderney/",
    "booking":"",
    "suitability":"",
    "weather_condition":"",
    "popularity":""
    }
  },
  {
    "type": "Feature",
    "geometry": {
       "type": "Point",
       "coordinates":  [ 7.1555705070495600,53.7064208984375 ]
    },
    "properties": {
    "id":20,
    "name":"Spielpark Kap Hoorn",
    "category":"freizeit",
    "subcategory":"outdoor_aktivitaeten",
    "description":"Der weitlaufige Ausenbereich des Spielparks Kap Hoorn bietet zahlreiche Moglichkeiten zum Toben und Entdecken. Kinder konnen sich auf Klettergerusten, Schaukeln und im Wasserspielbereich austoben, wahrend Eltern auf den gemutlichen Sitzplatzen entspannen. Die naturliche Umgebung und die groszugige Gestaltung machen den Ausenbereich zu einem perfekten Ort fur Abenteuer und Spielspas.",
    "icon":"",
    "image":"https://cdn.prod.website-files.com/670661a65d47d9da870f3d66/6793a0b5b0a71c1b3b50a582_norderney-spielpark-outdoor.jpg",
    "address":"Muhlenstrase 20, 26548 Norderney",
    "opening hours":"Rund um die Uhr geoffnet",
    "tags":"",
    "features":"",
    "comments":null,
    "rating":"",
    "price":"kostenlos",
    "web":"",
    "menu":"",
    "phone":"",
    "facebook":"",
    "instagram":"",
    "booking":"",
    "suitability":"",
    "weather_condition":"",
    "popularity":""
    }
  },
  {
    "type": "Feature",
    "geometry": {
       "type": "Point",
       "coordinates":  [ 7.144089581510600,53.70434906864360 ]
    },
    "properties": {
    "id":21,
    "name":"bade:haus norderney",
    "category":"freizeit",
    "subcategory":"wellness_spa",
    "description":"Das bade:haus Norderney ist Europas grostes Thalasso-Zentrum und ein Ort der Entspannung und Erholung. In moderner Architektur vereint es traditionelle Heilmethoden mit innovativen Wellness-Angeboten. Besucher konnen in Meerwasserpools entspannen, die heilende Wirkung der Thalasso-Anwendungen geniesen oder in der groszugigen Saunalandschaft mit Panoramablick uber die Nordsee zur Ruhe kommen. Ob Solebader, Massagen oder der einzigartige Dunenbereich - das bade:haus bietet ein unvergessliches Wohlfuhlerlebnis und ist ein Muss fur alle, die Korper und Geist verwohnen mochten.",
    "icon":"",
    "image":"https://cdn.prod.website-files.com/670661a65d47d9da870f3d66/6793a1b465f8bde9bced660a_badehaus.jpg",
    "address":"Am Kurplatz 1, 26548 Norderney",
    "opening hours":"",
    "tags":"",
    "features":"",
    "comments":null,
    "rating":"",
    "price":"",
    "web":"https://www.norderney.de/informationen/aktivitaeten/badehaus",
    "menu":"",
    "phone":"+49 (0)4932 891 - 400",
    "facebook":"https://www.facebook.com/pages/bade:haus%20norderney/109942245738076/",
    "instagram":"",
    "booking":"",
    "suitability":"",
    "weather_condition":"",
    "popularity":""
    }
  },
  {
    "type": "Feature",
    "geometry": {
       "type": "Point",
       "coordinates":  [ 7.147004596527130,53.70484497217800 ]
    },
    "properties": {
    "id":22,
    "name":"Inseltour Bommelbahnen",
    "category":"freizeit",
    "subcategory":"outdoor",
    "description":"Die Inseltour mit den Bommelbahnen auf Norderney ist eine entspannte und charmante Moglichkeit, die schonsten Seiten der Insel zu entdecken. In den nostalgischen Bahnen geniesen Gaste eine gemutliche Fahrt durch Dunenlandschaften, vorbei an historischen Orten und entlang beeindruckender Aussichtspunkte. Wahrend der Tour erfahren Besucher interessante Geschichten und spannende Fakten uber Norderneys Natur, Kultur und Geschichte. Eine Fahrt mit den Bommelbahnen ist ein unvergessliches Erlebnis fur die ganze Familie und ein Highlight fur Inselentdecker!",
    "icon":"",
    "image":"https://cdn.prod.website-files.com/670661a65d47d9da870f3d66/67937494099eef75f489a0f4_Inseltour.jpg",
    "address":"Rosengarten, 26548 Norderney",
    "opening hours":"taglich, 11:00 -15:00",
    "tags":"",
    "features":"",
    "comments":682,
    "rating":"04. Mai",
    "price":"",
    "web":"boemmelbahn.de",
    "menu":"",
    "phone":"16096004087",
    "facebook":"https://www.facebook.com/boemmelsbimmelbahn/",
    "instagram":"https://www.instagram.com/inseltour_boemmelbahnen/#",
    "booking":"https://www.boemmelbahn.de/fahrplan/",
    "suitability":"",
    "weather_condition":"",
    "popularity":""
    }
  },
  {
    "type": "Feature",
    "geometry": {
       "type": "Point",
       "coordinates":  [ 7.148982465702410,53.70398644458400 ]
    },
    "properties": {
    "id":23,
    "name":"Kino im Kurtheater",
    "category":"freizeit",
    "subcategory":"indoor",
    "description":"Das historische Kurtheater auf Norderney verbindet nostalgisches Ambiente mit modernem Kinogenuss. Im Herzen der Insel gelegen, begeistert es Filmfans mit einem ausgewahlten Programm aus aktuellen Blockbustern, anspruchsvollen Arthouse-Filmen und beliebten Klassikern. Die charmante Atmosphare des Saals, die bequemen Sitzmoglichkeiten und die moderne Technik machen jeden Kinobesuch zu einem besonderen Erlebnis. Ob fur einen entspannten Abend oder als Schlechtwetter-Alternative - das Kino im Kurtheater bietet Unterhaltung fur alle Altersgruppen. Auch regelmasige Events wie Filmabende und Premieren machen das Kurtheater zu einem kulturellen Highlight der Insel.",
    "icon":"",
    "image":"https://cdn.prod.website-files.com/670661a65d47d9da870f3d66/679b1ca8f3f6dad7d97f42d8_kurtheater.jpg",
    "address":"",
    "opening hours":"",
    "tags":"",
    "features":"",
    "comments":null,
    "rating":"",
    "price":"",
    "web":"https://www.kinoprogramm.com/kino/norderney/kino-im-kurtheater-93069",
    "menu":"",
    "phone":"",
    "facebook":"",
    "instagram":"",
    "booking":"",
    "suitability":"",
    "weather_condition":"",
    "popularity":""
    }
  },
  {
    "type": "Feature",
    "geometry": {
       "type": "Point",
       "coordinates":  [ 7.145669,53.7045356 ]
    },
    "properties": {
    "id":24,
    "name":"Conversationshaus ",
    "category":"inselhighlights",
    "subcategory":"wahrzeichen",
    "description":"Der Leseraum im Conversationshaus auf Norderney ist ein Ort der Ruhe und Entspannung, ideal fur Literaturfreunde und Erholungssuchende. In stilvollem Ambiente konnen Gaste in Buchern und Zeitschriften schmokern oder einfach die historische Atmosphare des prachtvollen Gebaudes geniesen. Der Leseraum ist nicht nur ein Ruckzugsort, sondern auch ein Stuck Geschichte, das an die kulturelle Bedeutung des Conversationshauses als gesellschaftlichen Mittelpunkt der Insel erinnert. Ein perfekter Ort fur eine Auszeit vom Trubel der Insel.",
    "icon":"",
    "image":"https://cdn.prod.website-files.com/670661a65d47d9da870f3d66/6793746d93ec770a25908b7d_Conversationshaus.jpg",
    "address":"Am Kurplatz 1, 26548 Norderney",
    "opening hours":"taglich, 10:00 - 17:00 Uhr",
    "tags":"",
    "features":"",
    "comments":null,
    "rating":"",
    "price":"kostenlos",
    "web":"",
    "menu":"",
    "phone":"",
    "facebook":"",
    "instagram":"",
    "booking":"",
    "suitability":"",
    "weather_condition":"",
    "popularity":""
    }
  },
  {
    "type": "Feature",
    "geometry": {
       "type": "Point",
       "coordinates":  [ 7.1484993,53.7035017 ]
    },
    "properties": {
    "id":25,
    "name":"Frieseneis",
    "category":"essen",
    "subcategory":"eisdielen",
    "description":"Frieseneis ist die erste Adresse auf Norderney fur alle Eisliebhaber, die Wert auf handgemachte Qualitat legen. Hier werden mit viel Liebe zum Detail cremige Eissorten und erfrischende Sorbets aus regionalen Zutaten hergestellt. Neben den klassischen Geschmacksrichtungen uberrascht Frieseneis immer wieder mit kreativen neuen Sorten. Ob im Becher oder in der Waffel - ein Besuch bei Frieseneis ist ein Muss fur alle, die das Besondere suchen.",
    "icon":"",
    "image":"https://cdn.prod.website-files.com/670661a65d47d9da870f3d66/6793a1b41ddb054f5ebe79c9_Frieseneins.jpg",
    "address":"Bulowallee 7, 26548 Norderney",
    "opening hours":"11:00 - 18:00, montags geschlossen",
    "tags":"",
    "features":"",
    "comments":null,
    "rating":"",
    "price":"",
    "web":"",
    "menu":"",
    "phone":"",
    "facebook":"",
    "instagram":"",
    "booking":"",
    "suitability":"",
    "weather_condition":"",
    "popularity":""
    }
  },
  {
    "type": "Feature",
    "geometry": {
       "type": "Point",
       "coordinates":  [ 7.145669,53.7045356 ]
    },
    "properties": {
    "id":26,
    "name":"Kurpalais",
    "category":"essen",
    "subcategory":"cafes",
    "description":"Das Kurpalais Norderney ist ein architektonisches Schmuckstuck und ein Zeugnis der prachtvollen Baderarchitektur der Insel. Im Herzen von Norderney gelegen, diente das historische Gebaude einst als gesellschaftlicher Treffpunkt fur Kurgaste und Badeurlauber. Heute beeindruckt das Kurpalais mit seinem stilvollen Ambiente und wird fur kulturelle Veranstaltungen, Konzerte und besondere Events genutzt. Ein Besuch verbindet eindrucksvoll Geschichte, Kultur und das Flair vergangener Zeiten mit modernem Charme.\nIn den kuhleren Monaten sorgt das Kaminzimmer oder die einladenden Sofas der Orangerie fur eine behagliche Atmosphare, in der man gerne verweilt.",
    "icon":"",
    "image":"https://cdn.prod.website-files.com/670661a65d47d9da870f3d66/6793a1db04e46a3162081bae_Kurpalais.jpg",
    "address":"Am Kurplatz 1, 26548 Norderney",
    "opening hours":"10:00 - 20:00, Donnerstag Ruhetag",
    "tags":"",
    "features":"",
    "comments":null,
    "rating":"",
    "price":"",
    "web":"",
    "menu":"",
    "phone":"",
    "facebook":"",
    "instagram":"",
    "booking":"",
    "suitability":"",
    "weather_condition":"",
    "popularity":""
    }
  },
  {
    "type": "Feature",
    "geometry": {
       "type": "Point",
       "coordinates":  [ 7.1509768,53.7124844 ]
    },
    "properties": {
    "id":27,
    "name":"Surfcafe",
    "category":"essen ",
    "subcategory":"top5_cafes_bars",
    "description":"Das Surfcafe Norderney ist eine der beliebtesten Locations der Insel und ein perfekter Ort, um den Tag mit einem Blick auf die Nordsee ausklingen zu lassen. Direkt am Strand gelegen, bietet es eine entspannte Atmosphare, kostliche Speisen und erfrischende Getranke. Von hausgemachten Kuchen uber frische Snacks bis hin zu exotischen Cocktails - das Surfcafe verbindet Strandfeeling mit kulinarischem Genuss. Besonders der Sonnenuntergang macht jeden Besuch zu einem unvergesslichen Erlebnis. Ein Must-Visit fur Genieser und Strandliebhaber!",
    "icon":"",
    "image":"https://cdn.prod.website-files.com/670661a65d47d9da870f3d66/6793a222b0a71c1b3b524fc7_SurfcafeTerrasse.webp",
    "address":"Am Januskopf 9, 26548 Norderney",
    "opening hours":"09:00 - 23:00, Donnerstag Ruhetag",
    "tags":"",
    "features":"",
    "comments":4720,
    "rating":"04. Mai",
    "price":"€€",
    "web":"http://www.surfcafe-norderney.de/",
    "menu":"http://www.surfcafe-norderney.de/speisekarte",
    "phone":"4932935750",
    "facebook":"https://www.facebook.com/profile.php?id=100064439633732",
    "instagram":"https://www.instagram.com/surfcafe_norderney/",
    "booking":"",
    "suitability":"",
    "weather_condition":"",
    "popularity":""
    }
  },
  {
    "type": "Feature",
    "geometry": {
       "type": "Point",
       "coordinates":  [ 7.1387478,53.7081771 ]
    },
    "properties": {
    "id":28,
    "name":"Milchbar",
    "category":"essen ",
    "subcategory":"top5_cafes_bars",
    "description":"Die Milchbar auf Norderney ist mehr als nur ein Cafe - sie ist ein ikonischer Treffpunkt mit unvergleichlichem Ausblick auf die Nordsee. Direkt an der Promenade gelegen, bietet sie den perfekten Ort, um bei einem Kaffee oder einem der beruhmten Milchshakes die Seele baumeln zu lassen. Besonders zur Abenddammerung zieht die Milchbar Besucher an, um den atemberaubenden Sonnenuntergang uber dem Meer zu geniesen. Mit ihrem modernen Design und der entspannten Atmosphare ist sie ein beliebter Ort fur Einheimische und Urlauber gleichermasen. Ein Besuch hier verspricht Genuss fur alle Sinne - ein echtes Highlight auf der Insel!",
    "icon":"",
    "image":"https://cdn.prod.website-files.com/670661a65d47d9da870f3d66/67993cc4f22c56cca5a7aca1_Milchbar.jpg",
    "address":"Damenpfad 33, 226548 Norderney",
    "opening hours":"",
    "tags":"",
    "features":"",
    "comments":null,
    "rating":"",
    "price":"",
    "web":"https://milchbar-norderney.de/",
    "menu":"",
    "phone":"",
    "facebook":"https://www.facebook.com/MilchbarNorderney",
    "instagram":"https://www.instagram.com/milchbar.norderney/",
    "booking":"",
    "suitability":"",
    "weather_condition":"",
    "popularity":""
    }
  },
  {
    "type": "Feature",
    "geometry": {
       "type": "Point",
       "coordinates":  [ 7.147142321046400,53.709927333604200 ]
    },
    "properties": {
    "id":29,
    "name":"Fischgeniesserei Norderney",
    "category":"essen ",
    "subcategory":"restaurants",
    "description":"Die Fischgeniesserei Norderney ist ein Paradies fur Liebhaber von frischem Fisch und maritimen Kostlichkeiten. Mit einer Leidenschaft fur Qualitat und regionalen Genuss werden hier fangfrische Spezialitaten aus der Nordsee serviert. Ob zarter Matjes, saftige Krabbenbrotchen oder kreativ zubereitete Fischgerichte - die Fischgeniesserei bietet fur jeden Geschmack das Passende. Das einladende Ambiente und der freundliche Service machen jeden Besuch zu einem kulinarischen Erlebnis. Ein Highlight ist die offene Kuche, in der die Gaste den Kochen bei der Zubereitung ihrer Speisen zuschauen konnen.",
    "icon":"",
    "image":"",
    "address":"Knyphausenstr. 9 · 26548 Norderney",
    "opening hours":"",
    "tags":"",
    "features":"",
    "comments":null,
    "rating":"",
    "price":"",
    "web":"https://www.fischgeniesserei.de/?fbclid=PAZXh0bgNhZW0CMTEAAaYR3FaS83mA4DoDs7emltbdgUQYusDL28crpXE_pi89-WV_SYc2PHVfyI8_aem_jdzbjizOVtDRtXcwyrkrUA",
    "menu":"",
    "phone":" 01602654826",
    "facebook":"https://www.facebook.com/fischgeniesserei",
    "instagram":"https://www.instagram.com/fischgeniesserei/",
    "booking":"https://gastronaut.ai/reservations/fischgeniesserei-norderney?subdomain=reservation&fbclid=PAZXh0bgNhZW0CMTEAAaYPQaK2anb0R97Z50hPPlvv3d-YD1z2zxPOlwGhhgbIeUqxSrHNMhBmS-s_aem_WNvhPHEGAeYANkhNeJwTRA",
    "suitability":"",
    "weather_condition":"",
    "popularity":""
    }
  },
  {
    "type": "Feature",
    "geometry": {
       "type": "Point",
       "coordinates":  [ 7.144137382507320,53.7077751159668 ]
    },
    "properties": {
    "id":30,
    "name":"Kaffeegeniesserei Norderney",
    "category":"essen ",
    "subcategory":"cafes",
    "description":"Die Kaffeegeniesserei Norderney ist ein gemutlicher Geheimtipp fur alle Kaffeeliebhaber. Mit viel Liebe zum Detail werden hier erstklassige Kaffeespezialitaten serviert, die vor Ort frisch gerostet werden. Das charmante Ambiente ladt zum Verweilen ein, wahrend hausgemachte Kuchen und kleine Leckereien das Geschmackserlebnis abrunden. Ob ein entspannter Start in den Tag oder eine wohlverdiente Pause - die Kaffeegeniesserei ist ein Ort, der Genuss und Entschleunigung perfekt verbindet.",
    "icon":"",
    "image":"https://cdn.prod.website-files.com/670661a65d47d9da870f3d66/6793a270d0a352c6bfb2e800_Kaffeegeniesserei.jpg",
    "address":"Schmiedestrase 16, 26548 Norderney",
    "opening hours":"",
    "tags":"",
    "features":"",
    "comments":368,
    "rating":"04. Aug",
    "price":"€€",
    "web":"https://www.kaffeegeniesserei.de/",
    "menu":"",
    "phone":"1743256142",
    "facebook":"https://www.facebook.com/kaffeegeniesserei",
    "instagram":"https://www.instagram.com/kaffeegeniesserei/",
    "booking":"",
    "suitability":"",
    "weather_condition":"",
    "popularity":""
    }
  },
  {
    "type": "Feature",
    "geometry": {
       "type": "Point",
       "coordinates":  [ 7.1414971351623500,53.70547866821280 ]
    },
    "properties": {
    "id":31,
    "name":"BITTERSUSS Norderney",
    "category":"essen ",
    "subcategory":"cafes",
    "description":"Das BITTERSUSS Norderney ist eine charmante Mischung aus Cafe und Concept Store, die Genuss und Stil perfekt vereint. Hier konnen Besucher hochwertige Schokoladenkreationen, feine Pralinen und aromatische Kaffeespezialitaten geniesen. Neben den kulinarischen Kostlichkeiten bietet das BITTERSUSS eine sorgfaltig kuratierte Auswahl an Geschenkideen, Wohnaccessoires und Lifestyle-Produkten. Es ist der ideale Ort, um sich eine kleine Auszeit zu gonnen oder ein besonderes Andenken von Norderney mit nach Hause zu nehmen.",
    "icon":"",
    "image":"https://cdn.prod.website-files.com/670661a65d47d9da870f3d66/6793a2d58d84986f7e82270e_bittersuss.jpg",
    "address":"Strandstrase 7, 26548 Norderney",
    "opening hours":"",
    "tags":"",
    "features":"",
    "comments":540,
    "rating":"04. Mai",
    "price":"",
    "web":"https://www.bittersuess-norderney.de/",
    "menu":"",
    "phone":"",
    "facebook":"https://www.facebook.com/bittersuess.norderney",
    "instagram":"https://www.instagram.com/bittersuessnorderney/",
    "booking":"",
    "suitability":"",
    "weather_condition":"",
    "popularity":""
    }
  },
  {
    "type": "Feature",
    "geometry": {
       "type": "Point",
       "coordinates":  [ 7.143214,53.7071327 ]
    },
    "properties": {
    "id":32,
    "name":"Gran Cafe Veneziano",
    "category":"essen ",
    "subcategory":"eisdielen",
    "description":"Das Gran Cafe Veneziano auf Norderney vereint italienische Lebensfreude mit kulinarischem Genuss. Direkt in der Innenstadt gelegen, lockt es mit hausgemachtem Eis, klassischen italienischen Spezialitaten und aromatischem Kaffee. Ob ein gemutlicher Nachmittag mit einem Eisbecher oder ein genussvolles Dinner mit Pizza und Pasta - hier erleben Gaste italienische Gastfreundschaft in einem modernen und stilvollen Ambiente. Ein Ort, der mediterranes Flair auf die Insel bringt und zum Verweilen einladt.",
    "icon":"",
    "image":"",
    "address":"Poststrase 9, 26548 Norderney",
    "opening hours":"",
    "tags":"",
    "features":"",
    "comments":2210,
    "rating":"04. Apr",
    "price":"",
    "web":"http://www.grancafe-veneziano.de/",
    "menu":"",
    "phone":"49321051",
    "facebook":"",
    "instagram":"",
    "booking":"",
    "suitability":"",
    "weather_condition":"",
    "popularity":""
    }
  },
  {
    "type": "Feature",
    "geometry": {
       "type": "Point",
       "coordinates":  [ 7.1441954,53.7084577 ]
    },
    "properties": {
    "id":33,
    "name":"al Monumento",
    "category":"essen ",
    "subcategory":"restaurants",
    "description":"Das Al Monumento auf Norderney ist eine beliebte Adresse fur Liebhaber italienischer Kuche. Mit Blick auf das Kaiser-Wilhelm-Denkmal geniesen Gaste hier authentische italienische Gerichte, von knuspriger Steinofenpizza uber frische Pasta bis hin zu mediterranen Fleisch- und Fischspezialitaten. Das stilvolle Ambiente und die herzliche Gastfreundschaft machen das Al Monumento zu einem perfekten Ort fur ein entspanntes Mittagessen oder ein romantisches Dinner. Ein Stuck Italien mitten auf Norderney!",
    "icon":"",
    "image":"",
    "address":"Friedrichstrase 21, 26548 Norderney",
    "opening hours":"",
    "tags":"italienisch",
    "features":"",
    "comments":389,
    "rating":"04. Jun",
    "price":"",
    "web":"",
    "menu":"",
    "phone":"49329916344",
    "facebook":"",
    "instagram":"",
    "booking":"",
    "suitability":"",
    "weather_condition":"",
    "popularity":""
    }
  },
  {
    "type": "Feature",
    "geometry": {
       "type": "Point",
       "coordinates":  [ 7.14284610748291,53.70646667480460 ]
    },
    "properties": {
    "id":34,
    "name":"La Gondola",
    "category":"essen ",
    "subcategory":"restaurants",
    "description":"Das La Gondola auf Norderney ist ein traditionsreiches italienisches Restaurant, das Gaste mit einer Vielzahl an mediterranen Kostlichkeiten verwohnt. Die Speisekarte reicht von knusprigen Pizzen und frischer Pasta bis hin zu raffinierten Fisch- und Fleischgerichten. In gemutlichem Ambiente und mit typisch italienischer Gastfreundschaft ladt das La Gondola zu entspannten Stunden ein - perfekt fur einen genussvollen Abend auf der Insel.",
    "icon":"",
    "image":"",
    "address":"Langestrase 1, 26548 Norderney",
    "opening hours":"",
    "tags":"italienisch, zum Mitnehmen",
    "features":"",
    "comments":421,
    "rating":"03. Sep",
    "price":"",
    "web":"",
    "menu":"",
    "phone":"4932467353",
    "facebook":"",
    "instagram":"",
    "booking":"https://www.google.com/maps/reserve/v/dine/c/wPT3qG8alLA?source=pa&opi=79508299&hl=de-DE&gei=CVGTZ-zTM8v87_UPmeKZyAY&sourceurl=https%3A%2F%2Fwww.google.de%2Fsearch%3Ftbm%3Dmap%26authuser%3D0%26hl%3Dde%26gl%3Dde%26pb%3D%214m12%211m3%211d7293.7335871691275%212d7.126328582616983%213d53.7085329830795%212m3%211f0%212f0%213f0%213m2%211i1280%212i593%214f13.1%217i20%2110b1%2112m22%211m3%2118b1%2130b1%2134e1%212m3%215m1%216e2%2120e3%214b0%2110b1%2112b1%2113b1%2116b1%2117m1%213e1%2120m3%215e2%216b1%2114b1%2146m1%211b0%2196b1%2119m4%212m3%211i360%212i120%214i8%2120m48%212m2%211i203%212i100%213m2%212i4%215b1%216m6%211m2%211i86%212i86%211m2%211i408%212i240%217m33%211m3%211e1%212b0%213e3%211m3%211e2%212b1%213e2%211m3%211e2%212b0%213e3%211m3%211e8%212b0%213e3%211m3%211e10%212b0%213e3%211m3%211e10%212b1%213e2%211m3%211e10%212b0%213e4%211m3%211e9%212b1%213e2%212b1%219b0%2122m6%211sJEKTZ9OSMq6E9u8PuM6E8Qw%3A354%212s1i%3A0%2Ct%3A11886%2Cp%3AJEKTZ9OSMq6E9u8PuM6E8Qw%3A354%217e81%2112e5%2117sJEKTZ9OSMq6E9u8PuM6E8Qw%3A803%2118e15%2124m108%211m32%2113m9%212b1%213b1%214b1%216i1%218b1%219b1%2114b1%2120b1%2125b1%2118m21%213b1%214b1%215b1%216b1%219b1%2112b1%2113b1%2114b1%2117b1%2120b1%2121b1%2122b1%2125b1%2127m1%211b0%2128b0%2132b1%2133m1%211b1%2134b0%2136e1%2110m1%218e3%2111m1%213e1%2114m1%213b1%2117b1%2120m2%211e3%211e6%2124b1%2125b1%2126b1%2129b1%2130m1%212b1%2136b1%2139m3%212m2%212i1%213i1%2143b1%2152b1%2154m1%211b1%2155b1%2156m1%211b1%2165m5%213m4%211m3%211m2%211i224%212i298%2171b1%2172m22%211m8%212b1%215b1%217b1%2112m4%211b1%212b1%214m1%211e1%214b1%218m10%211m6%214m1%211e1%214m1%211e3%214m1%211e4%213sother_user_google_reviews%216m1%211e1%219b1%2189b1%2198m3%211b1%212b1%213b1%21103b1%21113b1%21114m3%211b1%212m1%211b1%21117b1%21122m1%211b1%21125b0%21126b1%21127b1%2126m4%212m3%211i80%212i92%214i8%2130m28%211m6%211m2%211i0%212i0%212m2%211i530%212i593%211m6%211m2%211i1230%212i0%212m2%211i1280%212i593%211m6%211m2%211i0%212i0%212m2%211i1280%212i20%211m6%211m2%211i0%212i573%212m2%211i1280%212i593%2134m18%212b1%213b1%214b1%216b1%218m6%211b1%213b1%214b1%215b1%216b1%217b1%219b1%2112b1%2114b1%2120b1%2123b1%2125b1%2126b1%2137m1%211e81%2142b1%2147m0%2149m10%213b1%216m2%211b1%212b1%217m2%211e3%212b1%218b1%219b1%2110e2%2150m4%212e2%213m2%211b1%213b1%2167m2%217b1%2110b1%2169i717%26q%3Drestaurants%26oq%3Drestaurants%26gs_l%3Dmaps.3..38i377k1l2j38i72k1j38i377k1l2.82732.85613.3.85831.16.15.....115.1160.9j3.12.....0....1..maps..4.11.1199.0..38i39i111i426k1j38i426k1j38j38i444k1j38i376k1j38i10i377k1j38i10i426k1.%26ech%3D4%26psi%3DJEKTZ9OSMq6E9u8PuM6E8Qw.1737703974624.1&ihs=18",
    "suitability":"",
    "weather_condition":"",
    "popularity":""
    }
  },
  {
    "type": "Feature",
    "geometry": {
       "type": "Point",
       "coordinates":  [ 7.1467814445495600,53.70693588256830 ]
    },
    "properties": {
    "id":35,
    "name":"Haifischbar",
    "category":"essen ",
    "subcategory":"bars",
    "description":"Die Haifischbar auf Norderney ist eine kultige Location, die fur ihre entspannte Atmosphare und ihr maritimes Flair bekannt ist. Mit einer grosen Auswahl an Cocktails, Bier und kleinen Snacks ist sie der ideale Treffpunkt fur einen geselligen Abend. Oft gibt es Live-Musik oder andere Veranstaltungen, die den besonderen Charme der Bar ausmachen. Ob nach einem Strandtag oder zum Ausklang eines Inseltages - die Haifischbar ist ein Ort, an dem man das echte Norderney-Gefuhl erleben kann.",
    "icon":"",
    "image":"https://cdn.prod.website-files.com/670661a65d47d9da870f3d66/6793a33211c5425bcd5b00e6_haifischbar.jpg",
    "address":"Ostertrase 6 , 26548 Norderney",
    "opening hours":"18:00 - 02:00",
    "tags":"",
    "features":"",
    "comments":333,
    "rating":"4.0",
    "price":"",
    "web":"",
    "menu":"",
    "phone":"",
    "facebook":"https://www.facebook.com/pages/Haifischbar/164858670217431",
    "instagram":"",
    "booking":"",
    "suitability":"",
    "weather_condition":"",
    "popularity":""
    }
  },
  {
    "type": "Feature",
    "geometry": {
       "type": "Point",
       "coordinates":  [ 7.146080874379280,53.70574999900880 ]
    },
    "properties": {
    "id":36,
    "name":"Atelier Art & Bar",
    "category":"essen ",
    "subcategory":"bars",
    "description":"Die Atelier Art & Bar auf Norderney verbindet Kunst, Kultur und Genuss auf einzigartige Weise. In stilvollem Ambiente konnen Gaste kreative Kunstwerke bewundern, wahrend sie exzellente Cocktails, ausgewahlte Weine und kleine Kostlichkeiten geniesen. Regelmasige Kunstausstellungen, Lesungen und Musikveranstaltungen machen die Location zu einem Treffpunkt fur Kulturbegeisterte. Das Atelier Art & Bar ist ein besonderer Ort, der Kunst und Lebensfreude auf Norderney perfekt vereint.",
    "icon":"",
    "image":"https://cdn.prod.website-files.com/670661a65d47d9da870f3d66/6793a2d61af2782efc460c0f_atelier%20bar.jpg",
    "address":"Am Kurtheater 2, 26548 Norderney",
    "opening hours":"",
    "tags":"",
    "features":"",
    "comments":194,
    "rating":"04. Jul",
    "price":"",
    "web":"",
    "menu":"",
    "phone":"",
    "facebook":"",
    "instagram":"https://www.instagram.com/atelier_bar_norderney/",
    "booking":"",
    "suitability":"",
    "weather_condition":"",
    "popularity":""
    }
  },
  {
    "type": "Feature",
    "geometry": {
       "type": "Point",
       "coordinates":  [ 7.1420671,53.7009696 ]
    },
    "properties": {
    "id":37,
    "name":"Weststrand",
    "category":"freizeit",
    "subcategory":"top5_straende",
    "description":"Der Weststrand von Norderney ist ein idealer Ort fur Familien. Mit seiner Nahe zum Stadtzentrum bietet er einen leichten Zugang und verfugt uber Strandkorbe sowie sanitare Einrichtungen. Der flach abfallende Sandstrand macht ihn perfekt fur Kinder, wahrend Wassersportler die Wellen geniesen konnen. Hier lasst sich ein erholsamer Tag mit Blick auf den Sonnenuntergang ausklingen.",
    "icon":"",
    "image":"",
    "address":"",
    "opening hours":"",
    "tags":"",
    "features":"",
    "comments":null,
    "rating":"",
    "price":"",
    "web":"",
    "menu":"",
    "phone":"",
    "facebook":"",
    "instagram":"",
    "booking":"",
    "suitability":"",
    "weather_condition":"",
    "popularity":""
    }
  },
  {
    "type": "Feature",
    "geometry": {
       "type": "Point",
       "coordinates":  [ 7.1583436,53.7155271 ]
    },
    "properties": {
    "id":38,
    "name":"Nordstrand",
    "category":"freizeit",
    "subcategory":"top5_straende",
    "description":"Der Nordstrand von Norderney ist der groste Strand der Insel und ideal fur aktive Urlauber sowie Ruhesuchende. Er bietet viel Platz fur Spaziergange, Strandspiele und Sonnenbaden, wahrend Strandkorbe und gastronomische Angebote fur Komfort sorgen. Familien schatzen den flachen Zugang zum Wasser und die zahlreichen Freizeitmoglichkeiten. Auch Wassersportler finden hier optimale Bedingungen fur Aktivitaten wie Kitesurfen oder Windsurfen.",
    "icon":"",
    "image":"",
    "address":"",
    "opening hours":"",
    "tags":"",
    "features":"",
    "comments":null,
    "rating":"",
    "price":"",
    "web":"",
    "menu":"",
    "phone":"",
    "facebook":"",
    "instagram":"",
    "booking":"",
    "suitability":"",
    "weather_condition":"",
    "popularity":""
    }
  },
  {
    "type": "Feature",
    "geometry": {
       "type": "Point",
       "coordinates":  [ 7.208630225336850,53.722991505513400 ]
    },
    "properties": {
    "id":39,
    "name":"Weise Dune",
    "category":"freizeit",
    "subcategory":"top5_straende",
    "description":"Der Strand Weise Dune ist ein malerischer Ort mit feinem, weisen Sand, der sowohl fur Familien mit Kindern als auch fur Erholungssuchende geeignet ist. Ein Spielplatz bietet den Kleinen Spas und Abwechslung, wahrend Strandkorbe fur entspanntes Verweilen sorgen. Ein charmantes Strandlokal ladt mit regionalen Spezialitaten und kuhlen Getranken zum Geniesen ein. Ideal fur ausgedehnte Spaziergange, entspanntes Sonnenbaden oder gemeinsame Stunden mit der Familie. Perfekt fur alle, die Ruhe und Komfort miteinander verbinden mochten.",
    "icon":"",
    "image":"",
    "address":"",
    "opening hours":"",
    "tags":"",
    "features":"",
    "comments":null,
    "rating":"",
    "price":"",
    "web":"",
    "menu":"",
    "phone":"",
    "facebook":"",
    "instagram":"",
    "booking":"",
    "suitability":"",
    "weather_condition":"",
    "popularity":""
    }
  },
  {
    "type": "Feature",
    "geometry": {
       "type": "Point",
       "coordinates":  [ 7.241246581888100,53.72301864488180 ]
    },
    "properties": {
    "id":40,
    "name":"Oase-Strand",
    "category":"freizeit",
    "subcategory":"top5_straende",
    "description":"Etwa sieben Kilometer ostlich der Stadtmitte liegt der Oase Strand, ein malerischer Ort, der besonders fur Familien und Paare geeignet ist. Der Strand bietet sowohl einen Bereich mit normaler Badebekleidung im westlichen Teil als auch einen separaten FKK-Bereich im ostlichen Abschnitt, der Ruhesuchenden ein ungestortes Ambiente ermoglicht. Mit Strandkorben, sicheren Badezonen fur Kinder und einem nahegelegenen Restaurant, das regionale Speisen und erfrischende Getranke serviert, ist der Oase Strand ideal fur entspannte Tage in schoner Umgebung.",
    "icon":"",
    "image":"",
    "address":"",
    "opening hours":"",
    "tags":"",
    "features":"",
    "comments":null,
    "rating":"",
    "price":"",
    "web":"",
    "menu":"",
    "phone":"",
    "facebook":"",
    "instagram":"",
    "booking":"",
    "suitability":"",
    "weather_condition":"",
    "popularity":""
    }
  },
  {
    "type": "Feature",
    "geometry": {
       "type": "Point",
       "coordinates":  [ 7.1519159,53.7112007 ]
    },
    "properties": {
    "id":42,
    "name":"Escape Room Norderney",
    "category":"freizeit",
    "subcategory":"indoor",
    "description":"Der Escape Room Norderney ist die perfekte Aktivitat fur Abenteurer und Ratselliebhaber. Mit spannenden Themenraumen und kniffligen Aufgaben bietet er ein einzigartiges Erlebnis, das Teamgeist und Kreativitat erfordert. Ob als Familie, Gruppe von Freunden oder Arbeitskollegen - gemeinsam musst ihr versteckte Hinweise finden, Codes knacken und Ratsel losen, um dem Raum rechtzeitig zu entkommen. Die detailreichen Kulissen und die packende Atmosphare sorgen fur Nervenkitzel und Spas zugleich. Egal ob bei schlechtem Wetter oder als aufregende Erganzung zum Inselurlaub - der Escape Room Norderney garantiert unvergessliche Momente!",
    "icon":"",
    "image":"",
    "address":"Tannenstrase 14, 26548 Norderney",
    "opening hours":"",
    "tags":"",
    "features":"",
    "comments":null,
    "rating":"",
    "price":"",
    "web":"https://www.escape-room-norderney.de/",
    "menu":"",
    "phone":"+49 (0) 172 2066005",
    "facebook":"",
    "instagram":"https://www.instagram.com/escaperoom_norderney/",
    "booking":"",
    "suitability":"",
    "weather_condition":"",
    "popularity":""
    }
  },
  {
    "type": "Feature",
    "geometry": {
       "type": "Point",
       "coordinates":  [ 7.1596060828734600,53.711074588289 ]
    },
    "properties": {
    "id":46,
    "name":"Sternwarte Norderney",
    "category":"freizeit",
    "subcategory":"outdoor",
    "description":"Die Sternwarte Norderney entfuhrt Besucher in die faszinierende Welt der Astronomie. Abseits von storendem Stadtlicht bietet sie einen klaren Blick auf den Nachthimmel und die beeindruckenden Sterne uber der Insel. Bei spannenden Fuhrungen und Vortragen erfahren Gaste mehr uber Planeten, Galaxien und kosmische Phanomene. Besonders beeindruckend sind die Beobachtungen durch das leistungsstarke Teleskop, das einen Blick in die unendlichen Weiten des Universums ermoglicht. Ob als lehrreicher Ausflug fur die ganze Familie oder als romantisches Highlight fur Paare - die Sternwarte ist ein Ort, der zum Staunen und Traumen einladt.",
    "icon":"",
    "image":"https://cdn.prod.website-files.com/670661a65d47d9da870f3d66/679b240a0f92a592a5e7114b_Sternwarte.jpg",
    "address":"Am Kap 31, 26548 Norderney",
    "opening hours":"",
    "tags":"",
    "features":"",
    "comments":null,
    "rating":"",
    "price":"",
    "web":"http://www.sternwarte-norderney.de/kontakt.html",
    "menu":"",
    "phone":"",
    "facebook":"",
    "instagram":"",
    "booking":"",
    "suitability":"",
    "weather_condition":"",
    "popularity":""
    }
  },
  {
    "type": "Feature",
    "geometry": {
       "type": "Point",
       "coordinates":  [ 7.1742946968602700,53.71422413869100 ]
    },
    "properties": {
    "id":47,
    "name":"Reitschule Junkmann",
    "category":"freizeit",
    "subcategory":"outdoor",
    "description":"Die Reitschule Junkmann auf Norderney bietet Reitbegeisterten jeden Alters unvergessliche Erlebnisse. Mit professionellen Trainern und liebevoll ausgebildeten Pferden konnen Anfanger und Fortgeschrittene gleichermasen ihre Reitkunste verbessern oder einfach die Freude am Reiten geniesen. Die Reitschule liegt inmitten der idyllischen Natur der Insel und ermoglicht Ausritte durch die Dunenlandschaft und entlang des Strandes - ein Highlight fur jeden Pferdefreund. Zudem werden Kinderreitstunden und Ferienprogramme angeboten, die den jungsten Besuchern spielerisch den Umgang mit Pferden naherbringen. Ein Ort, der tierische Freundschaften und besondere Erinnerungen schafft.",
    "icon":"",
    "image":"https://cdn.prod.website-files.com/670661a65d47d9da870f3d66/679b2408ce202ec14360b93e_reitschule%20junkmann.jpg",
    "address":"Karl-Rieger-Weg 1a, 26548 Norderney",
    "opening hours":"",
    "tags":"",
    "features":"",
    "comments":null,
    "rating":"",
    "price":"",
    "web":"http://www.reitschule-junkmann.de/",
    "menu":"",
    "phone":"",
    "facebook":"",
    "instagram":"",
    "booking":"",
    "suitability":"",
    "weather_condition":"",
    "popularity":""
    }
  },
  {
    "type": "Feature",
    "geometry": {
       "type": "Point",
       "coordinates":  [ 7.174763237730530,53.71142228722320 ]
    },
    "properties": {
    "id":48,
    "name":"Norderneyer Brauhaus",
    "category":"freizeit",
    "subcategory":"outdoor",
    "description":"Das Norderneyer Brauhaus ist ein Muss fur alle, die die Kunst des Bierbrauens schatzen und einzigartige Geschmackserlebnisse suchen. In stilvollem, maritimem Ambiente werden hier frisch gebraute Bierspezialitaten angeboten, die mit regionalen Zutaten und viel Liebe zum Detail hergestellt werden. Ob ein kuhles Pils, ein wurziges Dunkelbier oder saisonale Spezialitaten - das Brauhaus uberzeugt mit Vielfalt und Qualitat. Neben den kostlichen Getranken lockt die Kuche mit deftigen Brauhausklassikern und frischen Gerichten. Regelmasige Events wie Bierverkostungen und Livemusik machen das Norderneyer Brauhaus zu einem lebendigen Treffpunkt fur Einheimische und Besucher.",
    "icon":"",
    "image":"https://cdn.prod.website-files.com/670661a65d47d9da870f3d66/679b1ca684e4027bc2a455d5_brauhalle.jpg",
    "address":"Im Gewerbegelande 18, 26548 Norderney",
    "opening hours":"",
    "tags":"",
    "features":"",
    "comments":null,
    "rating":"",
    "price":"",
    "web":"http://www.norderneyer-bier.de/",
    "menu":"",
    "phone":"04932 935087",
    "facebook":"https://www.facebook.com/NorderneyerBrauhaus",
    "instagram":"https://www.instagram.com/norderneyer.brauhaus/",
    "booking":"",
    "suitability":"",
    "weather_condition":"",
    "popularity":""
    }
  },
  {
    "type": "Feature",
    "geometry": {
       "type": "Point",
       "coordinates":  [ 7.156669138407600,53.706230668308300 ]
    },
    "properties": {
    "id":49,
    "name":"Windmuhle Seiden Rust",
    "category":"inselhighlights",
    "subcategory":"wahrzeichen",
    "description":"Die historische Windmuhle Norderney, auch bekannt als \"Selden Rust\", ist ein beeindruckendes Wahrzeichen der Insel. Sie wurde im Jahr 1862 erbaut und diente einst als Kornmuhle, bevor sie spater zu einer Galeriehollandermuhle umgebaut wurde. Heute ist die liebevoll restaurierte Muhle ein beliebtes Fotomotiv und ein Zeugnis der traditionellen Handwerkskunst. Eingebettet in die wunderschone Landschaft der Insel, ladt die Windmuhle zu einem Ausflug in die Geschichte ein. Ein Besuch lohnt sich besonders fur Kulturinteressierte und alle, die Norderney von einer anderen Seite entdecken mochten",
    "icon":"",
    "image":"https://cdn.prod.website-files.com/670661a65d47d9da870f3d66/679b1ca636db5451969f95b5_Windmuhle.jpg",
    "address":"Marienstr. 24 · 26548 Norderney",
    "opening hours":"",
    "tags":"",
    "features":"",
    "comments":null,
    "rating":"",
    "price":"",
    "web":"",
    "menu":"",
    "phone":"",
    "facebook":"",
    "instagram":"",
    "booking":"",
    "suitability":"",
    "weather_condition":"",
    "popularity":""
    }
  },
  {
    "type": "Feature",
    "geometry": {
       "type": "Point",
       "coordinates":  [ 7.150256068185130,53.712600772779900 ]
    },
    "properties": {
    "id":50,
    "name":"Segwey-Inseltour",
    "category":"freizeit",
    "subcategory":"outdoord",
    "description":"Entdecken Sie Norderney auf einer unvergesslichen dreistundigen Segway-Inseltour! Nach einer personlichen Einweisung erkunden Sie die Insel mit einem modernen Segway i2 oder einem Scuddy, begleitet von einem erfahrenen Landtours-Tourguide. Die Tour ist fur alle ab 14 Jahren geeignet und bietet unterwegs eine halbstundige Pause, um die malerische Umgebung zu geniesen. Snacks und Getranke sind inklusive, ebenso wie kostenlose Fotos und Videos als Erinnerung an das Erlebnis. Ob allein, mit Familie oder Freunden - diese Tour ist ein Highlight fur alle, die die Insel aktiv und bequem entdecken mochten.",
    "icon":"",
    "image":"https://cdn.prod.website-files.com/670661a65d47d9da870f3d66/679b1ca636db5451969f95b5_Windmuhle.jpg",
    "address":"Am Januskopf 8, Norderney",
    "opening hours":"",
    "tags":"",
    "features":"",
    "comments":null,
    "rating":"",
    "price":"",
    "web":"https://landtours-norderney.de/tour-info/",
    "menu":"",
    "phone":"",
    "facebook":"",
    "instagram":"",
    "booking":"",
    "suitability":"",
    "weather_condition":"",
    "popularity":""
    }
  },
  {
    "type": "Feature",
    "geometry": {
       "type": "Point",
       "coordinates":  [ 7.1555705070495600,53.7064208984375 ]
    },
    "properties": {
    "id":51,
    "name":"Outdoor Lasertag",
    "category":"freizeit",
    "subcategory":"outdoor",
    "description":"Action, Strategie und Adrenalin - Outdoor Lasertag auf Norderney verspricht spannende Gefechte unter freiem Himmel. Ob im Schnee oder bei strahlendem Sonnenschein, hier wird jede Runde zu einem einzigartigen Erlebnis. Gespielt wird im Spielpark Kap Hoorn, wo Teams von 2 bis 10 Personen gegeneinander antreten und sich mit moderner Leihausrustung spannende Matches liefern. Jede Runde dauert 10 Minuten, sodass genugend Zeit fur taktische Manover bleibt. Perfekt fur Familien, Freunde oder Teams ab 8 Jahren, die ein actionreiches Abenteuer in der Natur suchen!",
    "icon":"",
    "image":"https://cdn.prod.website-files.com/670661a65d47d9da870f3d66/679b1ca636db5451969f95b5_Windmuhle.jpg",
    "address":"Muhlenstrase 20, 26548 Norderney",
    "opening hours":"",
    "tags":"",
    "features":"",
    "comments":null,
    "rating":"",
    "price":"",
    "web":"https://www.freizeit-norderney.de/lasertag/",
    "menu":"",
    "phone":"",
    "facebook":"",
    "instagram":"",
    "booking":"",
    "suitability":"",
    "weather_condition":"",
    "popularity":""
    }
  },
  {
    "type": "Feature",
    "geometry": {
       "type": "Point",
       "coordinates":  [ 7.1449488,53.705281 ]
    },
    "properties": {
    "id":52,
    "name":"Gefuhrte Fahrradtouren",
    "category":"freizeit",
    "subcategory":"outdoor",
    "description":"Erleben Sie die schonsten Seiten Norderneys bei der Classic Fahrradtour - eine rund 10 km lange Entdeckungstour durch die beeindruckende Dunenlandschaft und zu den bekanntesten Hot-Spots der Insel. In 2,5 Stunden fuhren einheimische Guides die Teilnehmer durch den West- und Ostteil Norderneys und vermitteln spannende Einblicke in die Geschichte und Gegenwart der Insel.",
    "icon":"",
    "image":"https://cdn.prod.website-files.com/670661a65d47d9da870f3d66/679b1ca636db5451969f95b5_Windmuhle.jpg",
    "address":"Adolfsreihe 6. 26548 Norderney",
    "opening hours":"",
    "tags":"",
    "features":"",
    "comments":null,
    "rating":"",
    "price":"",
    "web":"https://www.freizeit-norderney.de/fahrradtour/",
    "menu":"",
    "phone":"",
    "facebook":"",
    "instagram":"",
    "booking":"",
    "suitability":"",
    "weather_condition":"",
    "popularity":""
    }
  },
  {
    "type": "Feature",
    "geometry": {
       "type": "Point",
       "coordinates":  [ 7.1411633439863165,53.703012513690965 ]
    },
    "properties": {
    "id":53,
    "name":"Strandpromenade",
    "category":"freizeit",
    "subcategory":"top5_must_sees",
    "description":"Die Strandpromenade bietet einen traumhaften Blick auf die Nordsee und ladt zum entspannten Flanieren ein. Direkt daneben liegt der Weststrand, der mit feinem Sand und gemutlichen Strandkorben perfekt fur eine kleine Auszeit ist. Hier spurt man die besondere maritime Atmosphare der Insel.",
    "icon":"",
    "image":"https://cdn.prod.website-files.com/670661a65d47d9da870f3d66/679b1ca636db5451969f95b5_Windmuhle.jpg",
    "address":"",
    "opening hours":"",
    "tags":"",
    "features":"",
    "comments":null,
    "rating":"",
    "price":"",
    "web":"",
    "menu":"",
    "phone":"",
    "facebook":"",
    "instagram":"",
    "booking":"",
    "suitability":"",
    "weather_condition":"",
    "popularity":""
    }
  },
  {
    "type": "Feature",
    "geometry": {
       "type": "Point",
       "coordinates":  [ 7.144952102815867,53.704577748926866 ]
    },
    "properties": {
    "id":54,
    "name":"Kurplatz",
    "category":"freizeit",
    "subcategory":"top5_must_sees",
    "description":"Der Kurplatz ist das Herzstuck der Insel und umgeben von historischen Gebauden wie dem Conversationshaus. Hier finden regelmasig Konzerte und Veranstaltungen statt, die fur eine besondere Atmosphare sorgen. Ein idealer Ort zum Verweilen und das Inselleben zu geniesen.",
    "icon":"",
    "image":"https://cdn.prod.website-files.com/670661a65d47d9da870f3d66/679b1ca636db5451969f95b5_Windmuhle.jpg",
    "address":"",
    "opening hours":"",
    "tags":"",
    "features":"",
    "comments":null,
    "rating":"",
    "price":"",
    "web":"",
    "menu":"",
    "phone":"",
    "facebook":"",
    "instagram":"",
    "booking":"",
    "suitability":"",
    "weather_condition":"",
    "popularity":""
    }
  },
  {
    "type": "Feature",
    "geometry": {
       "type": "Point",
       "coordinates":  [ 7.1438107,53.7081663 ]
    },
    "properties": {
    "id":55,
    "name":"Friedrichstrase",
    "category":"freizeit",
    "subcategory":"top5_must_sees",
    "description":"Die Friedrichstrase ist die lebendige Einkaufsstrase von Norderney und das Zentrum des Insellebens. Hier findest du Boutiquen, Cafes und Restaurants, die zum Bummeln und Verweilen einladen. Von Souvenirs bis hin zu regionalen Spezialitaten gibt es hier alles, was das Herz begehrt.",
    "icon":"",
    "image":"https://cdn.prod.website-files.com/670661a65d47d9da870f3d66/679b1ca636db5451969f95b5_Windmuhle.jpg",
    "address":"",
    "opening hours":"",
    "tags":"",
    "features":"",
    "comments":null,
    "rating":"",
    "price":"",
    "web":"",
    "menu":"",
    "phone":"",
    "facebook":"",
    "instagram":"",
    "booking":"",
    "suitability":"",
    "weather_condition":"",
    "popularity":""
    }
  },
  {
    "type": "Feature",
    "geometry": {
       "type": "Point",
       "coordinates":  [ 7.167611122131348,53.7026252746582 ]
    },
    "properties": {
    "id":56,
    "name":"Jachthafen",
    "category":"freizeit",
    "subcategory":"top5_must_sees",
    "description":"Der Jachthafen von Norderney bietet einen wunderschonen Blick auf das Wattenmeer und die zahlreichen Segelboote und Yachten, die hier anlegen. Besonders bei Sonnenuntergang entsteht eine idyllische Atmosphare mit maritimem Flair. Wer die Hafenstimmung liebt, kann hier entspannen und den Schiffen beim Ein- und Auslaufen zusehen.",
    "icon":"",
    "image":"https://cdn.prod.website-files.com/670661a65d47d9da870f3d66/679b1ca636db5451969f95b5_Windmuhle.jpg",
    "address":"",
    "opening hours":"",
    "tags":"",
    "features":"",
    "comments":null,
    "rating":"",
    "price":"",
    "web":"",
    "menu":"",
    "phone":"",
    "facebook":"",
    "instagram":"",
    "booking":"",
    "suitability":"",
    "weather_condition":"",
    "popularity":""
    }
  },
  {
    "type": "Feature",
    "geometry": {
       "type": "Point",
       "coordinates":  [ 7.194940640686309,53.714825736714914 ]
    },
    "properties": {
    "id":57,
    "name":"Dunenlandschaft",
    "category":"freizeit",
    "subcategory":"top5_must_sees",
    "description":"Die weitlaufigen Dunen sind ein echtes Naturparadies und laden zu entspannten Spaziergangen oder Radtouren ein. Besonders rund um die Weise Dune oder am Nordstrand kannst du die unberuhrte Natur geniesen. Die Dunen bieten nicht nur eine traumhafte Kulisse, sondern auch Ruhe und Erholung abseits des Trubels.",
    "icon":"",
    "image":"https://cdn.prod.website-files.com/670661a65d47d9da870f3d66/679b1ca636db5451969f95b5_Windmuhle.jpg",
    "address":"",
    "opening hours":"",
    "tags":"",
    "features":"",
    "comments":null,
    "rating":"",
    "price":"",
    "web":"",
    "menu":"",
    "phone":"",
    "facebook":"",
    "instagram":"",
    "booking":"",
    "suitability":"",
    "weather_condition":"",
    "popularity":""
    }
  },
  {
    "type": "Feature",
    "geometry": {
       "type": "Point",
       "coordinates":  [ 7.1387478,53.7081771 ]
    },
    "properties": {
    "id":58,
    "name":"Milchbar",
    "category":"freizeit",
    "subcategory":"top5_cafes_bars",
    "description":"Die Milchbar ist der perfekte Spot fur einen atemberaubenden Sonnenuntergang mit chilliger Musik. Direkt an der Promenade gelegen, bietet sie eine entspannte Atmosphare und leckere Drinks mit Meerblick. Besonders beliebt sind die hausgemachten Kuchen und Kaffeespezialitaten.",
    "icon":"",
    "image":"https://cdn.prod.website-files.com/670661a65d47d9da870f3d66/679b1ca636db5451969f95b5_Windmuhle.jpg",
    "address":"",
    "opening hours":"",
    "tags":"",
    "features":"",
    "comments":null,
    "rating":"",
    "price":"",
    "web":"",
    "menu":"",
    "phone":"",
    "facebook":"",
    "instagram":"",
    "booking":"",
    "suitability":"",
    "weather_condition":"",
    "popularity":""
    }
  },
  {
    "type": "Feature",
    "geometry": {
       "type": "Point",
       "coordinates":  [ 7.1509768,53.7124844 ]
    },
    "properties": {
    "id":59,
    "name":"Surfcafe",
    "category":"freizeit",
    "subcategory":"top5_cafes_bars",
    "description":"Das Surfcafe kombiniert entspannte Strandvibes mit leckerem Essen und tollen Fruhstucksangeboten. Es liegt direkt am Nordstrand und ist der ideale Ort fur eine kleine Pause nach einem Spaziergang. Besonders die hausgemachten Kuchen und das frische Fruhstuck sind sehr beliebt.",
    "icon":"",
    "image":"https://cdn.prod.website-files.com/670661a65d47d9da870f3d66/679b1ca636db5451969f95b5_Windmuhle.jpg",
    "address":"",
    "opening hours":"",
    "tags":"",
    "features":"",
    "comments":null,
    "rating":"",
    "price":"",
    "web":"",
    "menu":"",
    "phone":"",
    "facebook":"",
    "instagram":"",
    "booking":"",
    "suitability":"",
    "weather_condition":"",
    "popularity":""
    }
  },
  {
    "type": "Feature",
    "geometry": {
       "type": "Point",
       "coordinates":  [ 7.1382918167871745,53.707017014341034 ]
    },
    "properties": {
    "id":60,
    "name":"Marienhohe",
    "category":"freizeit",
    "subcategory":"top5_cafes_bars",
    "description":"Das Cafe Marienhohe ist eines der altesten Cafes auf Norderney und bietet einen traumhaften Blick auf die Nordsee. Hier kannst du in stilvollem Ambiente hausgemachte Torten geniesen und dabei die frische Meeresluft einatmen. Die Lage auf einer kleinen Anhohe macht es besonders einzigartig.",
    "icon":"",
    "image":"https://cdn.prod.website-files.com/670661a65d47d9da870f3d66/679b1ca636db5451969f95b5_Windmuhle.jpg",
    "address":"",
    "opening hours":"",
    "tags":"",
    "features":"",
    "comments":null,
    "rating":"",
    "price":"",
    "web":"",
    "menu":"",
    "phone":"",
    "facebook":"",
    "instagram":"",
    "booking":"",
    "suitability":"",
    "weather_condition":"",
    "popularity":""
    }
  },
  {
    "type": "Feature",
    "geometry": {
       "type": "Point",
       "coordinates":  [ 7.208630225336850,53.722991505513400 ]
    },
    "properties": {
    "id":61,
    "name":"Weise Dune",
    "category":"freizeit",
    "subcategory":"top5_cafes_bars",
    "description":"Die Weise Dune liegt etwas auserhalb der Stadt, mitten in den Dunen, und bietet ein erstklassiges kulinarisches Erlebnis. Neben ausgezeichnetem Kaffee gibt es hier auch regionale Spezialitaten und eine tolle Auswahl an Fruhstucks- und Mittagsgerichten. Perfekt fur eine kleine Auszeit in der Natur.",
    "icon":"",
    "image":"https://cdn.prod.website-files.com/670661a65d47d9da870f3d66/679b1ca636db5451969f95b5_Windmuhle.jpg",
    "address":"",
    "opening hours":"",
    "tags":"",
    "features":"",
    "comments":null,
    "rating":"",
    "price":"",
    "web":"",
    "menu":"",
    "phone":"",
    "facebook":"",
    "instagram":"",
    "booking":"",
    "suitability":"",
    "weather_condition":"",
    "popularity":""
    }
  },
  {
    "type": "Feature",
    "geometry": {
       "type": "Point",
       "coordinates":  [ 7.143804550170898,53.70825958251953 ]
    },
    "properties": {
    "id":62,
    "name":"Cafe Friedrich",
    "category":"freizeit",
    "subcategory":"top5_cafes_bars",
    "description":"Das Cafe Friedrich liegt zentral in der Friedrichstrase und ist ein Klassiker auf Norderney. Es besticht durch sein gemutliches Ambiente und die grose Auswahl an hausgemachten Kuchen und Torten. Ideal fur eine kleine Verschnaufpause beim Stadtbummel.",
    "icon":"",
    "image":"https://cdn.prod.website-files.com/670661a65d47d9da870f3d66/679b1ca636db5451969f95b5_Windmuhle.jpg",
    "address":"",
    "opening hours":"",
    "tags":"",
    "features":"",
    "comments":null,
    "rating":"",
    "price":"",
    "web":"",
    "menu":"",
    "phone":"",
    "facebook":"",
    "instagram":"",
    "booking":"",
    "suitability":"",
    "weather_condition":"",
    "popularity":""
    }
  },
  {
    "type": "Feature",
    "geometry": {
       "type": "Point",
       "coordinates":  [ 7.138742611111923,53.70738068717688 ]
    },
    "properties": {
    "id":63,
    "name":"Seesteg",
    "category":"freizeit",
    "subcategory":"top5_restaurants",
    "description":"Das Seesteg ist das exklusivste Restaurant auf Norderney und bietet Fine Dining mit Blick auf die Nordsee. Hier erwarten dich erstklassige, kreative Gerichte mit regionalen Zutaten in stilvollem Ambiente. Perfekt fur ein besonderes Dinner mit einzigartiger Atmosphare.",
    "icon":"",
    "image":"https://cdn.prod.website-files.com/670661a65d47d9da870f3d66/679b1ca636db5451969f95b5_Windmuhle.jpg",
    "address":"",
    "opening hours":"",
    "tags":"",
    "features":"",
    "comments":null,
    "rating":"",
    "price":"",
    "web":"",
    "menu":"",
    "phone":"",
    "facebook":"",
    "instagram":"",
    "booking":"",
    "suitability":"",
    "weather_condition":"",
    "popularity":""
    }
  },
  {
    "type": "Feature",
    "geometry": {
       "type": "Point",
       "coordinates":  [ 7.138742611111923,53.70738068717688 ]
    },
    "properties": {
    "id":64,
    "name":"Restaurant Oktopussy",
    "category":"freizeit",
    "subcategory":"top5_restaurants",
    "description":"Das Oktopussy ist ein stylisches Restaurant mit maritimem Flair und einer besonderen Auswahl an Fisch- und Fleischgerichten. Die offene Kuche sorgt fur ein spannendes Live-Kocherlebnis. Hier treffen hochwertige Zutaten auf moderne Zubereitung.",
    "icon":"",
    "image":"https://cdn.prod.website-files.com/670661a65d47d9da870f3d66/679b1ca636db5451969f95b5_Windmuhle.jpg",
    "address":"",
    "opening hours":"",
    "tags":"",
    "features":"",
    "comments":null,
    "rating":"",
    "price":"",
    "web":"",
    "menu":"",
    "phone":"",
    "facebook":"",
    "instagram":"",
    "booking":"",
    "suitability":"",
    "weather_condition":"",
    "popularity":""
    }
  },
  {
    "type": "Feature",
    "geometry": {
       "type": "Point",
       "coordinates":  [ 7.142398279499287,53.70201517687193 ]
    },
    "properties": {
    "id":65,
    "name":"Giftbude",
    "category":"freizeit",
    "subcategory":"top5_restaurants",
    "description":"Direkt am Weststrand gelegen, ist die Giftbude die perfekte Adresse fur entspanntes Essen mit Strandblick. Hier gibt es kreative Burger, frische Bowls und leckere Drinks. Ideal fur eine ungezwungene Mahlzeit mit Meeresrauschen im Hintergrund.",
    "icon":"",
    "image":"https://cdn.prod.website-files.com/670661a65d47d9da870f3d66/679b1ca636db5451969f95b5_Windmuhle.jpg",
    "address":"",
    "opening hours":"",
    "tags":"",
    "features":"",
    "comments":null,
    "rating":"",
    "price":"",
    "web":"",
    "menu":"",
    "phone":"",
    "facebook":"",
    "instagram":"",
    "booking":"",
    "suitability":"",
    "weather_condition":"",
    "popularity":""
    }
  },
  {
    "type": "Feature",
    "geometry": {
       "type": "Point",
       "coordinates":  [ 7.1509768,53.7124844 ]
    },
    "properties": {
    "id":66,
    "name":"Surfcafe",
    "category":"freizeit",
    "subcategory":"top5_restaurants",
    "description":"Das Surfcafe ist nicht nur ein Cafe, sondern bietet auch eine tolle Auswahl an herzhaften Gerichten. Von frischen Fischgerichten bis hin zu vegetarischen Bowls - hier gibt es fur jeden Geschmack etwas. Die entspannte Atmosphare am Nordstrand macht es zu einem perfekten Ort fur einen gemutlichen Abend.",
    "icon":"",
    "image":"https://cdn.prod.website-files.com/670661a65d47d9da870f3d66/679b1ca636db5451969f95b5_Windmuhle.jpg",
    "address":"",
    "opening hours":"",
    "tags":"",
    "features":"",
    "comments":null,
    "rating":"",
    "price":"",
    "web":"",
    "menu":"",
    "phone":"",
    "facebook":"",
    "instagram":"",
    "booking":"",
    "suitability":"",
    "weather_condition":"",
    "popularity":""
    }
  },
  {
    "type": "Feature",
    "geometry": {
       "type": "Point",
       "coordinates":  [ 7.147134335118848,53.709961891011254 ]
    },
    "properties": {
    "id":67,
    "name":"Fischgeniesserei",
    "category":"freizeit",
    "subcategory":"top5_restaurants",
    "description":"Die Fischgeniesserei bietet frische Fischspezialitaten in maritimer Atmosphare. Besonders die Tagesfange und die hausgemachten Beilagen werden von Gasten gelobt.​de.restaurantguru.com+2",
    "icon":"",
    "image":"https://cdn.prod.website-files.com/670661a65d47d9da870f3d66/679b1ca636db5451969f95b5_Windmuhle.jpg",
    "address":"",
    "opening hours":"",
    "tags":"",
    "features":"",
    "comments":null,
    "rating":"",
    "price":"",
    "web":"https://www.fischgeniesserei.de/?fbclid=PAZXh0bgNhZW0CMTEAAaYR3FaS83mA4DoDs7emltbdgUQYusDL28crpXE_pi89-WV_SYc2PHVfyI8_aem_jdzbjizOVtDRtXcwyrkrUA",
    "menu":"",
    "phone":" 01602654826",
    "facebook":"https://www.facebook.com/fischgeniesserei",
    "instagram":"https://www.instagram.com/fischgeniesserei/",
    "booking":"https://gastronaut.ai/reservations/fischgeniesserei-norderney?subdomain=reservation&fbclid=PAZXh0bgNhZW0CMTEAAaYPQaK2anb0R97Z50hPPlvv3d-YD1z2zxPOlwGhhgbIeUqxSrHNMhBmS-s_aem_WNvhPHEGAeYANkhNeJwTRA",
    "suitability":"",
    "weather_condition":"",
    "popularity":""
    }
  }
]
}