{
   "type": "FeatureCollection",
   "features": [
  {
    "type": "Feature",
    "geometry": {
       "type": "Point",
       "coordinates":  [ 7.144716281618977,53.708546157615714 ]
    },
    "properties": {
    "id":1,
    "name":"Kaiser-Wilhelm-Denkmal",
    "category":"inselhighlights",
    "subcategory":"sehenswuerdigkeiten",
    "description":"Das Kaiser-Wilhelm-Denkmal auf Norderney ist ein 13 Meter hoher Obelisk, der zwischen 1898 und 1899 zur Erinnerung an die Reichseinigung von 1871 und Kaiser Wilhelm I. errichtet wurde. Ursprünglich mit einer Bronzebüste und einem Reichsadler geschmückt, symbolisiert das Denkmal heute mit einer Möwenskulptur die Verbundenheit zur Nordsee. Es besteht aus Steinen aus 75 deutschen Städten, die symbolisch die Einheit des Deutschen Reichs darstellen.",
    "icon":"",
    "image":"https://cdn.prod.website-files.com/670661a65d47d9da870f3d66/678e465e09ed44a339a48692_Kaiser_Wilhelm_Denkmal_NOR.JPG",
    "address":"Knyphausenstraße 1A, 26548 Norderney",
    "opening hours":"Rund um die Uhr geöffnet",
    "tags":"",
    "features":"",
    "comments":930,
    "rating":4.4,
    "price":"",
    "web":"",
    "menu":"",
    "phone":"",
    "facebook":"",
    "instagram":"",
    "booking":"",
    "suitability":"",
    "weather_condition":"",
    "popularity":""
    }
  },
  {
    "type": "Feature",
    "geometry": {
       "type": "Point",
       "coordinates":  [ 7.161882,53.6985646 ]
    },
    "properties": {
    "id":2,
    "name":"Watt Welten",
    "category":"inselhighlights",
    "subcategory":"museen",
    "description":"DasWatt Welten\nDas Watt Welten UNESCO-Weltnaturerbe Wattenmeer - Besucherzentrum am Hafen lädt kleine und große Gäste ein, die faszinierende Welt des Wattenmeeres spielerisch zu erkunden. Besucher können Tiere aus nächster Nähe beobachten, virtuell Dünen entstehen lassen oder im Inselgarten sprechende Pflanzen erleben. Mit interaktiven Ausstellungen und spannenden Rätseln wird der einzigartige Lebensraum des Wattenmeeres lebendig.",
    "icon":"",
    "image":"https://cdn.prod.website-files.com/670661a65d47d9da870f3d66/67939f7170397c9f7355d962_Watt-Welten.webp",
    "address":"Am Hafen 2, 26548 Norderney",
    "opening hours":"täglich, 10:00 – 17:00; montags geschlossen",
    "tags":"",
    "features":"",
    "comments":717,
    "rating":4.3,
    "price":"",
    "web":"",
    "menu":"",
    "phone":"",
    "facebook":"",
    "instagram":"",
    "booking":"https://www.tickets.wattwelten.de/",
    "suitability":"",
    "weather_condition":"",
    "popularity":""
    }
  },
  {
    "type": "Feature",
    "geometry": {
       "type": "Point",
       "coordinates":  [ 7.1567671,53.7085498 ]
    },
    "properties": {
    "id":3,
    "name":"Wasserturm Norderney",
    "category":"inselhighlights",
    "subcategory":"sehenswuerdigkeiten",
    "description":"Der 46,2 Meter hohe, denkmalgeschützte Wasserturm Norderney mit seinen faszinierenden Klinkerornamenten und einer Aussichtsplattform speichert 500.000 Liter Trinkwasser und bietet einen spektakulären Blick über die Insel und ihre Nachbarn.",
    "icon":"",
    "image":"https://cdn.prod.website-files.com/670661a65d47d9da870f3d66/678eb20c299ec0c9bbadc6a5_Norderney_Wasserturm.jpg",
    "address":"Am Wasserturm 9, 26548 Norderney",
    "opening hours":"Rund um die Uhr geöffnet",
    "tags":"",
    "features":"",
    "comments":58,
    "rating":4.4,
    "price":"",
    "web":"",
    "menu":"",
    "phone":"",
    "facebook":"",
    "instagram":"",
    "booking":"",
    "suitability":"",
    "weather_condition":"",
    "popularity":""
    }
  },
  {
    "type": "Feature",
    "geometry": {
       "type": "Point",
       "coordinates":  [ 7.1448387,53.7110066 ]
    },
    "properties": {
    "id":4,
    "name":"Historischer Stockanker Georgshöhe",
    "category":"inselhighlights",
    "subcategory":"sehenswuerdigkeiten",
    "description":"Auf der Georgshöhe, unweit der Dünen von Norderney, thront ein beeindruckender historischer Stockanker, der an die maritime Geschichte der Insel erinnert. Dieser imposante Anker wurde einst von einem großen Segelschiff genutzt und später als Denkmal aufgestellt. Heute ist er ein beliebtes Fotomotiv und ein Zeugnis der Seefahrtstradition, die eng mit der Geschichte Norderneys verbunden ist.",
    "icon":"",
    "image":"https://cdn.prod.website-files.com/670661a65d47d9da870f3d66/6793749976c8611efdd9ba4e_Georgshoehe.webp",
    "address":"Kaiserstraße 28, 26548 Norderney",
    "opening hours":"Rund um die Uhr geöffnet",
    "tags":"",
    "features":"",
    "comments":134,
    "rating":4.7,
    "price":"",
    "web":"",
    "menu":"",
    "phone":"",
    "facebook":"",
    "instagram":"",
    "booking":"",
    "suitability":"",
    "weather_condition":"",
    "popularity":""
    }
  },
  {
    "type": "Feature",
    "geometry": {
       "type": "Point",
       "coordinates":  [ 7.1591012,53.7113202 ]
    },
    "properties": {
    "id":5,
    "name":"Kap Norderney (Bake)",
    "category":"inselhighlights",
    "subcategory":"sehenswuerdigkeiten",
    "description":"Das Kap Norderney, auch als Bake bekannt, ist ein markantes Seezeichen und Wahrzeichen der Insel. Ursprünglich 1848 errichtet, diente die 17 Meter hohe Holzstruktur jahrzehntelang als Navigationshilfe für die Schifffahrt. Heute steht die Bake nicht nur als technisches Denkmal, sondern auch als Symbol für die maritime Vergangenheit Norderneys und bietet Besuchern ein beeindruckendes Fotomotiv vor der Kulisse der Nordsee.",
    "icon":"",
    "image":"https://cdn.prod.website-files.com/670661a65d47d9da870f3d66/678f5b3617e55e54a4857857_Kap.webp",
    "address":"Am Kap 13A, 26548 Norderney",
    "opening hours":"Rund um die Uhr geöffnet",
    "tags":"",
    "features":"",
    "comments":643,
    "rating":4.5,
    "price":"",
    "web":"",
    "menu":"",
    "phone":"",
    "facebook":"",
    "instagram":"",
    "booking":"",
    "suitability":"",
    "weather_condition":"",
    "popularity":""
    }
  },
  {
    "type": "Feature",
    "geometry": {
       "type": "Point",
       "coordinates":  [ 7.164328098297119,53.71403121948242 ]
    },
    "properties": {
    "id":6,
    "name":"Thalasso Plattform am Nordstrand",
    "category":"inselhighlights",
    "subcategory":"aussichtspunkte",
    "description":"Die Thalasso-Plattform am Nordstrand von Norderney ist ein einzigartiger Ort, um die Kraft des Meeres hautnah zu erleben. Hier können Besucher das heilende Klima der Nordsee genießen, entspannen und die unendliche Weite des Meeres auf sich wirken lassen. Die Plattform ist Teil des Thalasso-Konzepts der Insel, das Gesundheit und Wohlbefinden mit der Natur verbindet – ein idealer Platz, um Körper und Geist zu stärken.",
    "icon":"",
    "image":"https://cdn.prod.website-files.com/670661a65d47d9da870f3d66/678f5b36aff28f7d1f96f925_Norderney-Thalasso-Nordstrand.jpg",
    "address":"Emsstraße 14, 26548 Norderney",
    "opening hours":"Rund um die Uhr geöffnet",
    "tags":"",
    "features":"",
    "comments":61,
    "rating":4.7,
    "price":"",
    "web":"",
    "menu":"",
    "phone":"",
    "facebook":"",
    "instagram":"",
    "booking":"",
    "suitability":"",
    "weather_condition":"",
    "popularity":""
    }
  },
  {
    "type": "Feature",
    "geometry": {
       "type": "Point",
       "coordinates":  [ 7.169699,53.7105238 ]
    },
    "properties": {
    "id":7,
    "name":"Bahnhof Stelldichein",
    "category":"inselhighlights",
    "subcategory":"sehenswuerdigkeiten",
    "description":"Der Bahnhof Stelldichein auf Norderney ist ein historisches Relikt aus der Zeit, als Pferdebahnen die Insel durchquerten. Ursprünglich als Wartehäuschen für Fahrgäste errichtet, dient das charmante Gebäude heute als nostalgisches Denkmal. Es erinnert an die Anfänge des Tourismus auf Norderney und ist ein beliebter Halt für Spaziergänger, die die historische Atmosphäre der Insel erleben möchten.",
    "icon":"",
    "image":"https://cdn.prod.website-files.com/670661a65d47d9da870f3d66/678f5b3780af505a114465d3_Norderney_Bahnhof_Stelldichein.jpg",
    "address":"Birkenweg 6, 26548 Norderney",
    "opening hours":"Rund um die Uhr geöffnet",
    "tags":"",
    "features":"",
    "comments":196,
    "rating":4.5,
    "price":"",
    "web":"",
    "menu":"",
    "phone":"",
    "facebook":"",
    "instagram":"",
    "booking":"",
    "suitability":"",
    "weather_condition":"",
    "popularity":""
    }
  },
  {
    "type": "Feature",
    "geometry": {
       "type": "Point",
       "coordinates":  [ 7.183749753157493,53.70915512475626 ]
    },
    "properties": {
    "id":8,
    "name":"Thalassoplattform am alten Postweg",
    "category":"inselhighlights",
    "subcategory":"aussichtspunkte",
    "description":"Die Thalasso-Plattform am Alten Postweg ist ein idyllischer Rückzugsort mitten in der Natur von Norderney. Umgeben von Dünen und Ruhe, bietet sie die perfekte Gelegenheit, die wohltuende Seeluft tief einzuatmen und das einzigartige Thalasso-Klima zu genießen. Mit Blick auf die unberührte Landschaft lädt die Plattform zum Entspannen und Verweilen ein – ein idealer Ort für Erholung und Achtsamkeit inmitten der Inselnatur.",
    "icon":"",
    "image":"https://cdn.prod.website-files.com/670661a65d47d9da870f3d66/6793e802abe17199c086e136_Postweg.jpeg",
    "address":"Am Alten Postweg, 26548 Norderney",
    "opening hours":"Rund um die Uhr geöffnet",
    "tags":"",
    "features":"",
    "comments":107,
    "rating":4.8,
    "price":"",
    "web":"",
    "menu":"",
    "phone":"",
    "facebook":"",
    "instagram":"",
    "booking":"",
    "suitability":"",
    "weather_condition":"",
    "popularity":""
    }
  },
  {
    "type": "Feature",
    "geometry": {
       "type": "Point",
       "coordinates":  [ 7.202837436552363,53.71377649992332 ]
    },
    "properties": {
    "id":9,
    "name":"Thalassoplattform am Dünensender",
    "category":"inselhighlights",
    "subcategory":"aussichtspunkte",
    "description":"Die Thalasso-Plattform am Dünensender bietet eine atemberaubende Aussicht auf die Dünenlandschaft Norderneys und die Weite der Nordsee. Hier können Besucher die Ruhe der Natur genießen, die frische, salzhaltige Luft inhalieren und die heilende Wirkung des Thalasso-Klimas erleben. Die Plattform lädt dazu ein, innezuhalten, die Umgebung auf sich wirken zu lassen und die Verbindung zwischen Mensch und Natur zu spüren.",
    "icon":"",
    "image":"https://cdn.prod.website-files.com/670661a65d47d9da870f3d66/6793e80106f58cd3068d91ca_Dünensender.jpg",
    "address":"Am Dünensender, 26548 Norderney",
    "opening hours":"Rund um die Uhr geöffnet",
    "tags":"",
    "features":"",
    "comments":368,
    "rating":4.8,
    "price":"",
    "web":"",
    "menu":"",
    "phone":"",
    "facebook":"",
    "instagram":"",
    "booking":"",
    "suitability":"",
    "weather_condition":"",
    "popularity":""
    }
  },
  {
    "type": "Feature",
    "geometry": {
       "type": "Point",
       "coordinates":  [ 7.1996916,53.7167415 ]
    },
    "properties": {
    "id":10,
    "name":"Weisse Düne Strand Norderney",
    "category":"inselhighlights",
    "subcategory":"sehenswuerdigkeiten",
    "description":"Der Strand Weiße Düne auf Norderney ist ein echtes Naturparadies mit feinem, weißen Sand und unberührter Dünenlandschaft. Dieser ruhige Abschnitt der Insel bietet die perfekte Kulisse für entspannte Strandtage, lange Spaziergänge und erholsame Stunden inmitten der Nordsee-Natur. Das nahegelegene Restaurant „Weiße Düne“ rundet das Erlebnis mit kulinarischen Köstlichkeiten und einem unvergleichlichen Blick auf die Dünen ab – ein Highlight für alle Sinne!",
    "icon":"",
    "image":"https://cdn.prod.website-files.com/670661a65d47d9da870f3d66/678f5b37174c45168510e4fa_Norderney_WeisseD%C3%BCne.webp",
    "address":"Weiße Düne, 26548 Norderney",
    "opening hours":"Rund um die Uhr geöffnet",
    "tags":"",
    "features":"",
    "comments":494,
    "rating":4.6,
    "price":"",
    "web":"",
    "menu":"",
    "phone":"",
    "facebook":"",
    "instagram":"",
    "booking":"",
    "suitability":"",
    "weather_condition":"",
    "popularity":""
    }
  },
  {
    "type": "Feature",
    "geometry": {
       "type": "Point",
       "coordinates":  [ 7.2299707,53.7099675 ]
    },
    "properties": {
    "id":11,
    "name":"Leuchtturm Norderney",
    "category":"inselhighlights",
    "subcategory":"sehenswuerdigkeiten",
    "description":"Der Leuchtturm Norderney ist eines der bekanntesten Wahrzeichen der Insel und ein beeindruckendes Stück maritimer Geschichte. Mit seiner Höhe von 54 Metern bietet er einen atemberaubenden Panoramablick über die Nordsee, die Insel und das umliegende Wattenmeer. 1874 erbaut, diente er über ein Jahrhundert lang als Orientierungspunkt für die Schifffahrt. Heute ist der Leuchtturm ein beliebtes Ausflugsziel und ein Muss für alle, die Norderney von oben erleben möchten.",
    "icon":"",
    "image":"https://cdn.prod.website-files.com/670661a65d47d9da870f3d66/6793a03c36107a2fb5ae68e9_Norderneyer-Leuchtturm.jpg",
    "address":"Am Leuchtturm 2, 26548 Norderney",
    "opening hours":"täglich, 14:00 - 16:00",
    "tags":"",
    "features":"",
    "comments":3098,
    "rating":4.4,
    "price":"",
    "web":"",
    "menu":"",
    "phone":"",
    "facebook":"",
    "instagram":"",
    "booking":"",
    "suitability":"",
    "weather_condition":"",
    "popularity":""
    }
  },
  {
    "type": "Feature",
    "geometry": {
       "type": "Point",
       "coordinates":  [ 7.3019713,53.7165876 ]
    },
    "properties": {
    "id":12,
    "name":"\"Möwendüne\"",
    "category":"inselhighlights",
    "subcategory":"aussichtspunkte",
    "description":"Die „Möwendüne“ auf Norderney ist ein malerischer Naturplatz, der durch seine ruhige Lage und beeindruckende Dünenlandschaft besticht. Dieser Ort ist ideal, um die heimische Tierwelt, insbesondere die namensgebenden Möwen, zu beobachten und die unberührte Schönheit der Insel zu genießen. Ob für eine kleine Wanderung oder einen Moment der Stille – die Möwendüne ist ein perfekter Rückzugsort mitten in der Natur Norderneys.",
    "icon":"",
    "image":"https://cdn.prod.website-files.com/670661a65d47d9da870f3d66/6793e801e865c374d25bc2c4_möwendüne.jpg",
    "address":"26548 Norderney",
    "opening hours":"Rund um die Uhr geöffnet",
    "tags":"",
    "features":"",
    "comments":80,
    "rating":4.7,
    "price":"",
    "web":"",
    "menu":"",
    "phone":"",
    "facebook":"",
    "instagram":"",
    "booking":"",
    "suitability":"",
    "weather_condition":"",
    "popularity":""
    }
  },
  {
    "type": "Feature",
    "geometry": {
       "type": "Point",
       "coordinates":  [ 7.345751388072439,53.71940966740354 ]
    },
    "properties": {
    "id":13,
    "name":"Wrack am Ostende",
    "category":"inselhighlights",
    "subcategory":"sehenswuerdigkeiten",
    "description":"Das Wrack am Ostende von Norderney ist ein faszinierendes Relikt, das von der Geschichte der Schifffahrt und den Herausforderungen der Nordsee erzählt. Vermutlich handelt es sich um die Überreste der „Pallas“, einem Frachtschiff, das 1930 vor der Insel strandete. Eingebettet in die Dünen und nur bei Ebbe zugänglich, ist das Wrack ein beliebtes Ziel für Wattwanderer und Fotografen. Wind, Wetter und Meer haben die Überreste stark gezeichnet, wodurch sie eine besondere, mystische Ausstrahlung erhalten. Das Wrack steht sinnbildlich für die Gefahren der Seefahrt und die Kraft der Natur, die das Leben auf der Insel seit jeher prägen.",
    "icon":"",
    "image":"https://cdn.prod.website-files.com/670661a65d47d9da870f3d66/678f5b371def67972a833a0f_Wrack.webp",
    "address":"26548 Norderney",
    "opening hours":"Rund um die Uhr geöffnet",
    "tags":"",
    "features":"",
    "comments":641,
    "rating":4.5,
    "price":"",
    "web":"",
    "menu":"",
    "phone":"",
    "facebook":"",
    "instagram":"",
    "booking":"",
    "suitability":"",
    "weather_condition":"",
    "popularity":""
    }
  },
  {
    "type": "Feature",
    "geometry": {
       "type": "Point",
       "coordinates":  [ 7.1439433097839355,53.70206832885742 ]
    },
    "properties": {
    "id":14,
    "name":"Museum Nordseeheilbad (Bademuseum)",
    "category":"inselhighlights",
    "subcategory":"museen",
    "description":"Das Museum Nordseeheilbad Norderney, auch als Bademuseum bekannt, entführt Besucher in die spannende Geschichte des Seebads und der Badekultur. Gelegen in einem historischen Gebäude, zeigt die Ausstellung, wie sich Norderney vom Fischerdorf zum ersten deutschen Nordseeheilbad entwickelte. Originale Exponate, historische Fotografien und interaktive Stationen beleuchten die Anfänge des Badelebens, die Rolle der Insel in der Heilmedizin und das mondäne Leben der damaligen Gäste. Das Museum ist ein kulturelles Highlight für alle, die mehr über die traditionsreiche Geschichte Norderneys erfahren möchten.",
    "icon":"",
    "image":"https://cdn.prod.website-files.com/670661a65d47d9da870f3d66/67937495e22f1579fcef64d2_bademuseum_norderney_2.jpg",
    "address":"Poppe-Folkerts-Weg 3b, 26548 Norderney",
    "opening hours":"",
    "tags":"",
    "features":"",
    "comments":349,
    "rating":4.5,
    "price":"",
    "web":"https://www.museum-norderney.de/",
    "menu":"",
    "phone":"",
    "facebook":"",
    "instagram":"",
    "booking":"",
    "suitability":"",
    "weather_condition":"",
    "popularity":""
    }
  },
  {
    "type": "Feature",
    "geometry": {
       "type": "Point",
       "coordinates":  [ 7.1441855,53.7033856 ]
    },
    "properties": {
    "id":15,
    "name":"Fischerhaus-Museum",
    "category":"inselhighlights",
    "subcategory":"museen",
    "description":"Das Fischerhaus-Museum auf Norderney ist das älteste erhaltene Wohnhaus der Insel und ein einzigartiges Zeugnis der Lebensweise früherer Insulaner. Erbaut im 18. Jahrhundert, beherbergt das liebevoll restaurierte Gebäude eine Ausstellung zur Geschichte der Fischerei, des Insellebens und der Seefahrt. Besucher können originale Einrichtungsgegenstände, Werkzeuge und historische Dokumente entdecken, die einen lebendigen Einblick in das harte Leben der Fischerfamilien geben. Das Fischerhaus-Museum ist ein besonderer Ort, der die Ursprünge und Traditionen der Insel Norderney eindrucksvoll bewahrt.",
    "icon":"",
    "image":"https://cdn.prod.website-files.com/670661a65d47d9da870f3d66/679374932a3f24a10d1f1819_Fischerhaus-Museum.webp",
    "address":"Weststrandstraße 1, 26548 Norderney",
    "opening hours":"",
    "tags":"",
    "features":"",
    "comments":62,
    "rating":4.6,
    "price":"",
    "web":"http://www.heimatverein-norderney.de/index.php/oeffnungszeiten.html",
    "menu":"",
    "phone":"",
    "facebook":"",
    "instagram":"",
    "booking":"",
    "suitability":"",
    "weather_condition":"",
    "popularity":""
    }
  },
  {
    "type": "Feature",
    "geometry": {
       "type": "Point",
       "coordinates":  [ 7.1484011,53.7089238 ]
    },
    "properties": {
    "id":16,
    "name":"Poppe-Folkerts-Museum",
    "category":"inselhighlights",
    "subcategory":"museen",
    "description":"Die Fördergemeinschaft Poppe-Folkerts-Museum Norderney e.V. setzt sich für die Bewahrung und Präsentation des Werks von Poppe Folkerts, einem der bedeutendsten Künstler der Insel, ein. Folkerts war für seine maritimen Gemälde bekannt, die die raue Schönheit der Nordsee und die Landschaft Norderneys eindrucksvoll einfangen. Die Fördergemeinschaft unterstützt Ausstellungen, pflegt das künstlerische Erbe und bietet Interessierten einen Einblick in das Leben und Schaffen dieses außergewöhnlichen Malers. Das Museum ist ein kultureller Schatz für Kunstliebhaber und ein besonderer Anziehungspunkt auf Norderney.",
    "icon":"",
    "image":"https://cdn.prod.website-files.com/670661a65d47d9da870f3d66/678f5b3793795981b30e32ea_Norderney_Poppe.jpg",
    "address":"Luciusstr. 24, 26548 Norderney",
    "opening hours":"",
    "tags":"",
    "features":"",
    "comments":1,
    "rating":1,
    "price":"",
    "web":"poppe-folkerts-museum.de",
    "menu":"",
    "phone":"",
    "facebook":"",
    "instagram":"",
    "booking":"",
    "suitability":"",
    "weather_condition":"",
    "popularity":""
    }
  },
  {
    "type": "Feature",
    "geometry": {
       "type": "Point",
       "coordinates":  [ 7.1555705070495605,53.7064208984375 ]
    },
    "properties": {
    "id":17,
    "name":"Spielpark Kap Hoorn",
    "category":"freizeit",
    "subcategory":"indoor_aktivitaeten",
    "description":"Auch bei schlechtem Wetter kommt im Spielpark keine Langeweile auf. Der Innenbereich bietet wetterunabhängige Spielmöglichkeiten wie eine Indoor-Kletteranlage, kreative Spielecken und einen Cafébereich, in dem Eltern bei einer Tasse Kaffee entspannen können. Hier steht alles bereit, um Kindern eine spannende Zeit zu bieten – unabhängig von der Witterung.",
    "icon":"",
    "image":"https://cdn.prod.website-files.com/670661a65d47d9da870f3d66/6793a0b41f3083c3412c1a9f_norderney-spielpark-indoor.jpg",
    "address":"Mühlenstraße 20, 26548 Norderney",
    "opening hours":"täglich, 10:00 - 18:00 Uhr",
    "tags":"",
    "features":"",
    "comments":null,
    "rating":null,
    "price":"kostenlos",
    "web":"",
    "menu":"",
    "phone":"",
    "facebook":"",
    "instagram":"",
    "booking":"",
    "suitability":"",
    "weather_condition":"",
    "popularity":""
    }
  },
  {
    "type": "Feature",
    "geometry": {
       "type": "Point",
       "coordinates":  [ 7.164587508163769,53.70732733403144 ]
    },
    "properties": {
    "id":18,
    "name":"Wattwanderungen ",
    "category":"freizeit",
    "subcategory":"outdoor_aktivitaeten",
    "description":"Die Wattwanderungen auf Norderney bieten ein einmaliges Naturerlebnis im UNESCO-Weltnaturerbe Wattenmeer. Unter der Führung erfahrener Wattführer entdecken Besucher die faszinierende Welt zwischen Ebbe und Flut. Dabei lernen sie spannende Fakten über die einzigartigen Lebensräume, Tiere wie Wattwürmer, Krebse und Vögel sowie die Bedeutung des Watts für die Nordsee. Ob Familien, Paare oder Alleinreisende – eine Wattwanderung ist ein besonderes Abenteuer, das Nähe zur Natur und unvergessliche Eindrücke garantiert. Für alle Touren sind wetterfeste Kleidung und festes Schuhwerk empfohlen!",
    "icon":"",
    "image":"https://cdn.prod.website-files.com/670661a65d47d9da870f3d66/67939f71408edb8b22c81696_watt-wanderung.webp",
    "address":"Am Hafen 2, 26548 Norderney",
    "opening hours":"",
    "tags":"",
    "features":"",
    "comments":null,
    "rating":null,
    "price":"",
    "web":"https://www.nationalparkhaus-wattenmeer.de/watt-welten-unesco-weltnaturerbe-wattenmeer-besucherzentrum-norderney/wattfuehrungen",
    "menu":"",
    "phone":"",
    "facebook":"",
    "instagram":"",
    "booking":"https://www.tickets.wattwelten.de/",
    "suitability":"",
    "weather_condition":"",
    "popularity":""
    }
  },
  {
    "type": "Feature",
    "geometry": {
       "type": "Point",
       "coordinates":  [ 7.1686945,53.7027975 ]
    },
    "properties": {
    "id":19,
    "name":"Surfschule Norderney",
    "category":"freizeit",
    "subcategory":"outdoor_aktivitaeten",
    "description":"Die Surfschule Norderney ist die perfekte Anlaufstelle für Wassersportfans, egal ob Anfänger oder Fortgeschrittene. Hier können Sie Windsurfen, Kitesurfen, Wellenreiten, Stand-Up-Paddling und Kajakfahren erlernen oder Ihre Fähigkeiten ausbauen. Die Schule bietet eine breite Auswahl an Kursen, von Schnupperstunden bis hin zu intensiven Trainings, sowie professionelles Equipment zum Verleih. Mit erfahrenen Lehrern und der einzigartigen Kulisse der Nordsee wird jeder Tag auf dem Wasser zu einem besonderen Erlebnis. Ein Muss für alle, die Action und Spaß auf Norderney suchen!",
    "icon":"",
    "image":"https://cdn.prod.website-files.com/670661a65d47d9da870f3d66/67939f71a5aab48fe94e6e83_Surfer.jpg",
    "address":"Am Hafen 17 · 26548 Norderney",
    "opening hours":"",
    "tags":"",
    "features":"",
    "comments":null,
    "rating":null,
    "price":"",
    "web":"https://www.surfschule-norderney.de/",
    "menu":"",
    "phone":"04932 648",
    "facebook":"https://www.facebook.com/Surfschule.Norderney",
    "instagram":"https://www.instagram.com/surfschule_norderney/",
    "booking":"",
    "suitability":"",
    "weather_condition":"",
    "popularity":""
    }
  },
  {
    "type": "Feature",
    "geometry": {
       "type": "Point",
       "coordinates":  [ 7.1555705070495605,53.7064208984375 ]
    },
    "properties": {
    "id":20,
    "name":"Spielpark Kap Hoorn",
    "category":"freizeit",
    "subcategory":"outdoor_aktivitaeten",
    "description":"Der weitläufige Außenbereich des Spielparks Kap Hoorn bietet zahlreiche Möglichkeiten zum Toben und Entdecken. Kinder können sich auf Klettergerüsten, Schaukeln und im Wasserspielbereich austoben, während Eltern auf den gemütlichen Sitzplätzen entspannen. Die natürliche Umgebung und die großzügige Gestaltung machen den Außenbereich zu einem perfekten Ort für Abenteuer und Spielspaß.",
    "icon":"",
    "image":"https://cdn.prod.website-files.com/670661a65d47d9da870f3d66/6793a0b5b0a71c1b3b50a582_norderney-spielpark-outdoor.jpg",
    "address":"Mühlenstraße 20, 26548 Norderney",
    "opening hours":"Rund um die Uhr geöffnet",
    "tags":"",
    "features":"",
    "comments":null,
    "rating":null,
    "price":"kostenlos",
    "web":"",
    "menu":"",
    "phone":"",
    "facebook":"",
    "instagram":"",
    "booking":"",
    "suitability":"",
    "weather_condition":"",
    "popularity":""
    }
  },
  {
    "type": "Feature",
    "geometry": {
       "type": "Point",
       "coordinates":  [ 7.144089581510609,53.70434906864364 ]
    },
    "properties": {
    "id":21,
    "name":"bade:haus norderney",
    "category":"freizeit",
    "subcategory":"indoor_aktivitaeten",
    "description":"Das bade:haus Norderney ist Europas größtes Thalasso-Zentrum und ein Ort der Entspannung und Erholung. In moderner Architektur vereint es traditionelle Heilmethoden mit innovativen Wellness-Angeboten. Besucher können in Meerwasserpools entspannen, die heilende Wirkung der Thalasso-Anwendungen genießen oder in der großzügigen Saunalandschaft mit Panoramablick über die Nordsee zur Ruhe kommen. Ob Solebäder, Massagen oder der einzigartige Dünenbereich – das bade:haus bietet ein unvergessliches Wohlfühlerlebnis und ist ein Muss für alle, die Körper und Geist verwöhnen möchten.",
    "icon":"",
    "image":"https://cdn.prod.website-files.com/670661a65d47d9da870f3d66/6793a1b465f8bde9bced660a_badehaus.jpg",
    "address":"Am Kurplatz 1, 26548 Norderney",
    "opening hours":"",
    "tags":"",
    "features":"",
    "comments":null,
    "rating":null,
    "price":"",
    "web":"https://www.norderney.de/informationen/aktivitaeten/badehaus",
    "menu":"",
    "phone":"+49 (0)4932 891 - 400",
    "facebook":"https://www.facebook.com/pages/bade:haus%20norderney/109942245738076/",
    "instagram":"",
    "booking":"",
    "suitability":"",
    "weather_condition":"",
    "popularity":""
    }
  },
  {
    "type": "Feature",
    "geometry": {
       "type": "Point",
       "coordinates":  [ 7.147004596527138,53.70484497217805 ]
    },
    "properties": {
    "id":22,
    "name":"Inseltour Bömmelbahnen",
    "category":"freizeit",
    "subcategory":"outdoor_aktivitaeten",
    "description":"Die Inseltour mit den Bömmelbahnen auf Norderney ist eine entspannte und charmante Möglichkeit, die schönsten Seiten der Insel zu entdecken. In den nostalgischen Bahnen genießen Gäste eine gemütliche Fahrt durch Dünenlandschaften, vorbei an historischen Orten und entlang beeindruckender Aussichtspunkte. Während der Tour erfahren Besucher interessante Geschichten und spannende Fakten über Norderneys Natur, Kultur und Geschichte. Eine Fahrt mit den Bömmelbahnen ist ein unvergessliches Erlebnis für die ganze Familie und ein Highlight für Inselentdecker!",
    "icon":"",
    "image":"https://cdn.prod.website-files.com/670661a65d47d9da870f3d66/67937494099eef75f489a0f4_Inseltour.jpg",
    "address":"Rosengarten, 26548 Norderney",
    "opening hours":"täglich, 11:00 -15:00",
    "tags":"",
    "features":"",
    "comments":682,
    "rating":4.5,
    "price":"",
    "web":"boemmelbahn.de",
    "menu":"",
    "phone":"016096004087",
    "facebook":"https://www.facebook.com/boemmelsbimmelbahn/",
    "instagram":"https://www.instagram.com/inseltour_boemmelbahnen/#",
    "booking":"https://www.boemmelbahn.de/fahrplan/",
    "suitability":"",
    "weather_condition":"",
    "popularity":""
    }
  },
  {
    "type": "Feature",
    "geometry": {
       "type": "Point",
       "coordinates":  [ 7.148982465702418,53.70398644458409 ]
    },
    "properties": {
    "id":23,
    "name":"Kino im Kurtheater",
    "category":"freizeit",
    "subcategory":"indoor_aktivitaeten",
    "description":"Das historische Kurtheater auf Norderney verbindet nostalgisches Ambiente mit modernem Kinogenuss. Im Herzen der Insel gelegen, begeistert es Filmfans mit einem ausgewählten Programm aus aktuellen Blockbustern, anspruchsvollen Arthouse-Filmen und beliebten Klassikern. Die charmante Atmosphäre des Saals, die bequemen Sitzmöglichkeiten und die moderne Technik machen jeden Kinobesuch zu einem besonderen Erlebnis. Ob für einen entspannten Abend oder als Schlechtwetter-Alternative – das Kino im Kurtheater bietet Unterhaltung für alle Altersgruppen. Auch regelmäßige Events wie Filmabende und Premieren machen das Kurtheater zu einem kulturellen Highlight der Insel.",
    "icon":"",
    "image":"https://cdn.prod.website-files.com/670661a65d47d9da870f3d66/679b1ca8f3f6dad7d97f42d8_kurtheater.jpg",
    "address":"",
    "opening hours":"",
    "tags":"",
    "features":"",
    "comments":null,
    "rating":null,
    "price":"",
    "web":"https://www.kinoprogramm.com/kino/norderney/kino-im-kurtheater-93069",
    "menu":"",
    "phone":"",
    "facebook":"",
    "instagram":"",
    "booking":"",
    "suitability":"",
    "weather_condition":"",
    "popularity":""
    }
  },
  {
    "type": "Feature",
    "geometry": {
       "type": "Point",
       "coordinates":  [ 7.145669,53.7045356 ]
    },
    "properties": {
    "id":24,
    "name":"Conversationshaus ",
    "category":"inselhighlights",
    "subcategory":"sehenswuerdigkeiten",
    "description":"Der Leseraum im Conversationshaus auf Norderney ist ein Ort der Ruhe und Entspannung, ideal für Literaturfreunde und Erholungssuchende. In stilvollem Ambiente können Gäste in Büchern und Zeitschriften schmökern oder einfach die historische Atmosphäre des prachtvollen Gebäudes genießen. Der Leseraum ist nicht nur ein Rückzugsort, sondern auch ein Stück Geschichte, das an die kulturelle Bedeutung des Conversationshauses als gesellschaftlichen Mittelpunkt der Insel erinnert. Ein perfekter Ort für eine Auszeit vom Trubel der Insel.",
    "icon":"",
    "image":"https://cdn.prod.website-files.com/670661a65d47d9da870f3d66/6793746d93ec770a25908b7d_Conversationshaus.jpg",
    "address":"Am Kurplatz 1, 26548 Norderney",
    "opening hours":"täglich, 10:00 - 17:00 Uhr",
    "tags":"",
    "features":"",
    "comments":null,
    "rating":null,
    "price":"kostenlos",
    "web":"",
    "menu":"",
    "phone":"",
    "facebook":"",
    "instagram":"",
    "booking":"",
    "suitability":"",
    "weather_condition":"",
    "popularity":""
    }
  },
  {
    "type": "Feature",
    "geometry": {
       "type": "Point",
       "coordinates":  [ 7.1484993,53.7035017 ]
    },
    "properties": {
    "id":25,
    "name":"Frieseneis",
    "category":"essen",
    "subcategory":"eisdielen",
    "description":"Frieseneis ist die erste Adresse auf Norderney für alle Eisliebhaber, die Wert auf handgemachte Qualität legen. Hier werden mit viel Liebe zum Detail cremige Eissorten und erfrischende Sorbets aus regionalen Zutaten hergestellt. Neben den klassischen Geschmacksrichtungen überrascht Frieseneis immer wieder mit kreativen neuen Sorten. Ob im Becher oder in der Waffel – ein Besuch bei Frieseneis ist ein Muss für alle, die das Besondere suchen.",
    "icon":"",
    "image":"https://cdn.prod.website-files.com/670661a65d47d9da870f3d66/6793a1b41ddb054f5ebe79c9_Frieseneins.jpg",
    "address":"Bülowallee 7, 26548 Norderney",
    "opening hours":"11:00 - 18:00, montags geschlossen",
    "tags":"",
    "features":"",
    "comments":null,
    "rating":null,
    "price":"",
    "web":"",
    "menu":"",
    "phone":"",
    "facebook":"",
    "instagram":"",
    "booking":"",
    "suitability":"",
    "weather_condition":"",
    "popularity":""
    }
  },
  {
    "type": "Feature",
    "geometry": {
       "type": "Point",
       "coordinates":  [ 7.145669,53.7045356 ]
    },
    "properties": {
    "id":26,
    "name":"Kurpalais",
    "category":"essen",
    "subcategory":"cafes",
    "description":"Das Kurpalais Norderney ist ein architektonisches Schmuckstück und ein Zeugnis der prachtvollen Bäderarchitektur der Insel. Im Herzen von Norderney gelegen, diente das historische Gebäude einst als gesellschaftlicher Treffpunkt für Kurgäste und Badeurlauber. Heute beeindruckt das Kurpalais mit seinem stilvollen Ambiente und wird für kulturelle Veranstaltungen, Konzerte und besondere Events genutzt. Ein Besuch verbindet eindrucksvoll Geschichte, Kultur und das Flair vergangener Zeiten mit modernem Charme.\nIn den kühleren Monaten sorgt das Kaminzimmer oder die einladenden Sofas der Orangerie für eine behagliche Atmosphäre, in der man gerne verweilt.",
    "icon":"",
    "image":"https://cdn.prod.website-files.com/670661a65d47d9da870f3d66/6793a1db04e46a3162081bae_Kurpalais.jpg",
    "address":"Am Kurplatz 1, 26548 Norderney",
    "opening hours":"10:00 - 20:00, Donnerstag Ruhetag",
    "tags":"",
    "features":"",
    "comments":null,
    "rating":null,
    "price":"",
    "web":"",
    "menu":"",
    "phone":"",
    "facebook":"",
    "instagram":"",
    "booking":"",
    "suitability":"",
    "weather_condition":"",
    "popularity":""
    }
  },
  {
    "type": "Feature",
    "geometry": {
       "type": "Point",
       "coordinates":  [ 7.1509768,53.7124844 ]
    },
    "properties": {
    "id":27,
    "name":"Surfcafé",
    "category":"essen ",
    "subcategory":"cafes",
    "description":"Das Surfcafé Norderney ist eine der beliebtesten Locations der Insel und ein perfekter Ort, um den Tag mit einem Blick auf die Nordsee ausklingen zu lassen. Direkt am Strand gelegen, bietet es eine entspannte Atmosphäre, köstliche Speisen und erfrischende Getränke. Von hausgemachten Kuchen über frische Snacks bis hin zu exotischen Cocktails – das Surfcafé verbindet Strandfeeling mit kulinarischem Genuss. Besonders der Sonnenuntergang macht jeden Besuch zu einem unvergesslichen Erlebnis. Ein Must-Visit für Genießer und Strandliebhaber!",
    "icon":"",
    "image":"https://cdn.prod.website-files.com/670661a65d47d9da870f3d66/6793a222b0a71c1b3b524fc7_SurfcaféTerrasse.webp",
    "address":"Am Januskopf 9, 26548 Norderney",
    "opening hours":"09:00 - 23:00, Donnerstag Ruhetag",
    "tags":"",
    "features":"",
    "comments":4720,
    "rating":4.5,
    "price":"€€",
    "web":"http://www.surfcafe-norderney.de/",
    "menu":"http://www.surfcafe-norderney.de/speisekarte",
    "phone":"04932935750",
    "facebook":"https://www.facebook.com/profile.php?id=100064439633732",
    "instagram":"https://www.instagram.com/surfcafe_norderney/",
    "booking":"",
    "suitability":"",
    "weather_condition":"",
    "popularity":""
    }
  },
  {
    "type": "Feature",
    "geometry": {
       "type": "Point",
       "coordinates":  [ 7.1387478,53.7081771 ]
    },
    "properties": {
    "id":28,
    "name":"Milchbar",
    "category":"essen ",
    "subcategory":"cafes",
    "description":"Die Milchbar auf Norderney ist mehr als nur ein Café – sie ist ein ikonischer Treffpunkt mit unvergleichlichem Ausblick auf die Nordsee. Direkt an der Promenade gelegen, bietet sie den perfekten Ort, um bei einem Kaffee oder einem der berühmten Milchshakes die Seele baumeln zu lassen. Besonders zur Abenddämmerung zieht die Milchbar Besucher an, um den atemberaubenden Sonnenuntergang über dem Meer zu genießen. Mit ihrem modernen Design und der entspannten Atmosphäre ist sie ein beliebter Ort für Einheimische und Urlauber gleichermaßen. Ein Besuch hier verspricht Genuss für alle Sinne – ein echtes Highlight auf der Insel!",
    "icon":"",
    "image":"https://cdn.prod.website-files.com/670661a65d47d9da870f3d66/67993cc4f22c56cca5a7aca1_Milchbar.jpg",
    "address":"Damenpfad 33, 226548 Norderney",
    "opening hours":"",
    "tags":"",
    "features":"",
    "comments":null,
    "rating":null,
    "price":"",
    "web":"https://milchbar-norderney.de/",
    "menu":"",
    "phone":"",
    "facebook":"https://www.facebook.com/MilchbarNorderney",
    "instagram":"https://www.instagram.com/milchbar.norderney/",
    "booking":"",
    "suitability":"",
    "weather_condition":"",
    "popularity":""
    }
  },
  {
    "type": "Feature",
    "geometry": {
       "type": "Point",
       "coordinates":  [ 7.147142321046407,53.709927333604256 ]
    },
    "properties": {
    "id":29,
    "name":"Fischgeniesserei Norderney",
    "category":"essen ",
    "subcategory":"restaurants",
    "description":"Die Fischgeniesserei Norderney ist ein Paradies für Liebhaber von frischem Fisch und maritimen Köstlichkeiten. Mit einer Leidenschaft für Qualität und regionalen Genuss werden hier fangfrische Spezialitäten aus der Nordsee serviert. Ob zarter Matjes, saftige Krabbenbrötchen oder kreativ zubereitete Fischgerichte – die Fischgeniesserei bietet für jeden Geschmack das Passende. Das einladende Ambiente und der freundliche Service machen jeden Besuch zu einem kulinarischen Erlebnis. Ein Highlight ist die offene Küche, in der die Gäste den Köchen bei der Zubereitung ihrer Speisen zuschauen können.",
    "icon":"",
    "image":"",
    "address":"Knyphausenstr. 9 · 26548 Norderney",
    "opening hours":"",
    "tags":"",
    "features":"",
    "comments":null,
    "rating":null,
    "price":"",
    "web":"https://www.fischgeniesserei.de/?fbclid=PAZXh0bgNhZW0CMTEAAaYR3FaS83mA4DoDs7emltbdgUQYusDL28crpXE_pi89-WV_SYc2PHVfyI8_aem_jdzbjizOVtDRtXcwyrkrUA",
    "menu":"",
    "phone":" 01602654826",
    "facebook":"https://www.facebook.com/fischgeniesserei",
    "instagram":"https://www.instagram.com/fischgeniesserei/",
    "booking":"https://gastronaut.ai/reservations/fischgeniesserei-norderney?subdomain=reservation&fbclid=PAZXh0bgNhZW0CMTEAAaYPQaK2anb0R97Z50hPPlvv3d-YD1z2zxPOlwGhhgbIeUqxSrHNMhBmS-s_aem_WNvhPHEGAeYANkhNeJwTRA",
    "suitability":"",
    "weather_condition":"",
    "popularity":""
    }
  },
  {
    "type": "Feature",
    "geometry": {
       "type": "Point",
       "coordinates":  [ 7.144137382507324,53.7077751159668 ]
    },
    "properties": {
    "id":30,
    "name":"Kaffeegeniesserei Norderney",
    "category":"essen ",
    "subcategory":"cafes",
    "description":"Die Kaffeegeniesserei Norderney ist ein gemütlicher Geheimtipp für alle Kaffeeliebhaber. Mit viel Liebe zum Detail werden hier erstklassige Kaffeespezialitäten serviert, die vor Ort frisch geröstet werden. Das charmante Ambiente lädt zum Verweilen ein, während hausgemachte Kuchen und kleine Leckereien das Geschmackserlebnis abrunden. Ob ein entspannter Start in den Tag oder eine wohlverdiente Pause – die Kaffeegeniesserei ist ein Ort, der Genuss und Entschleunigung perfekt verbindet.",
    "icon":"",
    "image":"https://cdn.prod.website-files.com/670661a65d47d9da870f3d66/6793a270d0a352c6bfb2e800_Kaffeegeniesserei.jpg",
    "address":"Schmiedestraße 16, 26548 Norderney",
    "opening hours":"",
    "tags":"",
    "features":"",
    "comments":368,
    "rating":4.8,
    "price":"€€",
    "web":"https://www.kaffeegeniesserei.de/",
    "menu":"",
    "phone":"01743256142",
    "facebook":"https://www.facebook.com/kaffeegeniesserei",
    "instagram":"https://www.instagram.com/kaffeegeniesserei/",
    "booking":"",
    "suitability":"",
    "weather_condition":"",
    "popularity":""
    }
  },
  {
    "type": "Feature",
    "geometry": {
       "type": "Point",
       "coordinates":  [ 7.1414971351623535,53.70547866821289 ]
    },
    "properties": {
    "id":31,
    "name":"BITTERSÜSS Norderney",
    "category":"essen ",
    "subcategory":"cafes",
    "description":"Das BITTERSÜSS Norderney ist eine charmante Mischung aus Café und Concept Store, die Genuss und Stil perfekt vereint. Hier können Besucher hochwertige Schokoladenkreationen, feine Pralinen und aromatische Kaffeespezialitäten genießen. Neben den kulinarischen Köstlichkeiten bietet das BITTERSÜSS eine sorgfältig kuratierte Auswahl an Geschenkideen, Wohnaccessoires und Lifestyle-Produkten. Es ist der ideale Ort, um sich eine kleine Auszeit zu gönnen oder ein besonderes Andenken von Norderney mit nach Hause zu nehmen.",
    "icon":"",
    "image":"https://cdn.prod.website-files.com/670661a65d47d9da870f3d66/6793a2d58d84986f7e82270e_bittersuss.jpg",
    "address":"Strandstraße 7, 26548 Norderney",
    "opening hours":"",
    "tags":"",
    "features":"",
    "comments":540,
    "rating":4.5,
    "price":"",
    "web":"https://www.bittersuess-norderney.de/",
    "menu":"",
    "phone":"",
    "facebook":"https://www.facebook.com/bittersuess.norderney",
    "instagram":"https://www.instagram.com/bittersuessnorderney/",
    "booking":"",
    "suitability":"",
    "weather_condition":"",
    "popularity":""
    }
  },
  {
    "type": "Feature",
    "geometry": {
       "type": "Point",
       "coordinates":  [ 7.143214,53.7071327 ]
    },
    "properties": {
    "id":32,
    "name":"Gran Café Veneziano",
    "category":"essen ",
    "subcategory":"eisdielen",
    "description":"Das Gran Café Veneziano auf Norderney vereint italienische Lebensfreude mit kulinarischem Genuss. Direkt in der Innenstadt gelegen, lockt es mit hausgemachtem Eis, klassischen italienischen Spezialitäten und aromatischem Kaffee. Ob ein gemütlicher Nachmittag mit einem Eisbecher oder ein genussvolles Dinner mit Pizza und Pasta – hier erleben Gäste italienische Gastfreundschaft in einem modernen und stilvollen Ambiente. Ein Ort, der mediterranes Flair auf die Insel bringt und zum Verweilen einlädt.",
    "icon":"",
    "image":"",
    "address":"Poststraße 9, 26548 Norderney",
    "opening hours":"",
    "tags":"",
    "features":"",
    "comments":2210,
    "rating":4.4,
    "price":"",
    "web":"http://www.grancafe-veneziano.de/",
    "menu":"",
    "phone":"049321051",
    "facebook":"",
    "instagram":"",
    "booking":"",
    "suitability":"",
    "weather_condition":"",
    "popularity":""
    }
  },
  {
    "type": "Feature",
    "geometry": {
       "type": "Point",
       "coordinates":  [ 7.1441954,53.7084577 ]
    },
    "properties": {
    "id":33,
    "name":"al Monumento",
    "category":"essen ",
    "subcategory":"restaurants",
    "description":"Das Al Monumento auf Norderney ist eine beliebte Adresse für Liebhaber italienischer Küche. Mit Blick auf das Kaiser-Wilhelm-Denkmal genießen Gäste hier authentische italienische Gerichte, von knuspriger Steinofenpizza über frische Pasta bis hin zu mediterranen Fleisch- und Fischspezialitäten. Das stilvolle Ambiente und die herzliche Gastfreundschaft machen das Al Monumento zu einem perfekten Ort für ein entspanntes Mittagessen oder ein romantisches Dinner. Ein Stück Italien mitten auf Norderney!",
    "icon":"",
    "image":"",
    "address":"Friedrichstraße 21, 26548 Norderney",
    "opening hours":"",
    "tags":"italienisch",
    "features":"",
    "comments":389,
    "rating":4.6,
    "price":"",
    "web":"",
    "menu":"",
    "phone":"049329916344",
    "facebook":"",
    "instagram":"",
    "booking":"",
    "suitability":"",
    "weather_condition":"",
    "popularity":""
    }
  },
  {
    "type": "Feature",
    "geometry": {
       "type": "Point",
       "coordinates":  [ 7.14284610748291,53.70646667480469 ]
    },
    "properties": {
    "id":34,
    "name":"La Gondola",
    "category":"essen ",
    "subcategory":"restaurants",
    "description":"Das La Gondola auf Norderney ist ein traditionsreiches italienisches Restaurant, das Gäste mit einer Vielzahl an mediterranen Köstlichkeiten verwöhnt. Die Speisekarte reicht von knusprigen Pizzen und frischer Pasta bis hin zu raffinierten Fisch- und Fleischgerichten. In gemütlichem Ambiente und mit typisch italienischer Gastfreundschaft lädt das La Gondola zu entspannten Stunden ein – perfekt für einen genussvollen Abend auf der Insel.",
    "icon":"",
    "image":"",
    "address":"Langestraße 1, 26548 Norderney",
    "opening hours":"",
    "tags":"italienisch, zum Mitnehmen",
    "features":"",
    "comments":421,
    "rating":3.9,
    "price":"",
    "web":"",
    "menu":"",
    "phone":"04932467353",
    "facebook":"",
    "instagram":"",
    "booking":"https://www.google.com/maps/reserve/v/dine/c/wPT3qG8alLA?source=pa&opi=79508299&hl=de-DE&gei=CVGTZ-zTM8v87_UPmeKZyAY&sourceurl=https%3A%2F%2Fwww.google.de%2Fsearch%3Ftbm%3Dmap%26authuser%3D0%26hl%3Dde%26gl%3Dde%26pb%3D%214m12%211m3%211d7293.7335871691275%212d7.126328582616983%213d53.7085329830795%212m3%211f0%212f0%213f0%213m2%211i1280%212i593%214f13.1%217i20%2110b1%2112m22%211m3%2118b1%2130b1%2134e1%212m3%215m1%216e2%2120e3%214b0%2110b1%2112b1%2113b1%2116b1%2117m1%213e1%2120m3%215e2%216b1%2114b1%2146m1%211b0%2196b1%2119m4%212m3%211i360%212i120%214i8%2120m48%212m2%211i203%212i100%213m2%212i4%215b1%216m6%211m2%211i86%212i86%211m2%211i408%212i240%217m33%211m3%211e1%212b0%213e3%211m3%211e2%212b1%213e2%211m3%211e2%212b0%213e3%211m3%211e8%212b0%213e3%211m3%211e10%212b0%213e3%211m3%211e10%212b1%213e2%211m3%211e10%212b0%213e4%211m3%211e9%212b1%213e2%212b1%219b0%2122m6%211sJEKTZ9OSMq6E9u8PuM6E8Qw%3A354%212s1i%3A0%2Ct%3A11886%2Cp%3AJEKTZ9OSMq6E9u8PuM6E8Qw%3A354%217e81%2112e5%2117sJEKTZ9OSMq6E9u8PuM6E8Qw%3A803%2118e15%2124m108%211m32%2113m9%212b1%213b1%214b1%216i1%218b1%219b1%2114b1%2120b1%2125b1%2118m21%213b1%214b1%215b1%216b1%219b1%2112b1%2113b1%2114b1%2117b1%2120b1%2121b1%2122b1%2125b1%2127m1%211b0%2128b0%2132b1%2133m1%211b1%2134b0%2136e1%2110m1%218e3%2111m1%213e1%2114m1%213b1%2117b1%2120m2%211e3%211e6%2124b1%2125b1%2126b1%2129b1%2130m1%212b1%2136b1%2139m3%212m2%212i1%213i1%2143b1%2152b1%2154m1%211b1%2155b1%2156m1%211b1%2165m5%213m4%211m3%211m2%211i224%212i298%2171b1%2172m22%211m8%212b1%215b1%217b1%2112m4%211b1%212b1%214m1%211e1%214b1%218m10%211m6%214m1%211e1%214m1%211e3%214m1%211e4%213sother_user_google_reviews%216m1%211e1%219b1%2189b1%2198m3%211b1%212b1%213b1%21103b1%21113b1%21114m3%211b1%212m1%211b1%21117b1%21122m1%211b1%21125b0%21126b1%21127b1%2126m4%212m3%211i80%212i92%214i8%2130m28%211m6%211m2%211i0%212i0%212m2%211i530%212i593%211m6%211m2%211i1230%212i0%212m2%211i1280%212i593%211m6%211m2%211i0%212i0%212m2%211i1280%212i20%211m6%211m2%211i0%212i573%212m2%211i1280%212i593%2134m18%212b1%213b1%214b1%216b1%218m6%211b1%213b1%214b1%215b1%216b1%217b1%219b1%2112b1%2114b1%2120b1%2123b1%2125b1%2126b1%2137m1%211e81%2142b1%2147m0%2149m10%213b1%216m2%211b1%212b1%217m2%211e3%212b1%218b1%219b1%2110e2%2150m4%212e2%213m2%211b1%213b1%2167m2%217b1%2110b1%2169i717%26q%3Drestaurants%26oq%3Drestaurants%26gs_l%3Dmaps.3..38i377k1l2j38i72k1j38i377k1l2.82732.85613.3.85831.16.15.....115.1160.9j3.12.....0....1..maps..4.11.1199.0..38i39i111i426k1j38i426k1j38j38i444k1j38i376k1j38i10i377k1j38i10i426k1.%26ech%3D4%26psi%3DJEKTZ9OSMq6E9u8PuM6E8Qw.1737703974624.1&ihs=18",
    "suitability":"",
    "weather_condition":"",
    "popularity":""
    }
  },
  {
    "type": "Feature",
    "geometry": {
       "type": "Point",
       "coordinates":  [ 7.1467814445495605,53.70693588256836 ]
    },
    "properties": {
    "id":35,
    "name":"Haifischbar",
    "category":"essen ",
    "subcategory":"bars",
    "description":"Die Haifischbar auf Norderney ist eine kultige Location, die für ihre entspannte Atmosphäre und ihr maritimes Flair bekannt ist. Mit einer großen Auswahl an Cocktails, Bier und kleinen Snacks ist sie der ideale Treffpunkt für einen geselligen Abend. Oft gibt es Live-Musik oder andere Veranstaltungen, die den besonderen Charme der Bar ausmachen. Ob nach einem Strandtag oder zum Ausklang eines Inseltages – die Haifischbar ist ein Ort, an dem man das echte Norderney-Gefühl erleben kann.",
    "icon":"",
    "image":"https://cdn.prod.website-files.com/670661a65d47d9da870f3d66/6793a33211c5425bcd5b00e6_haifischbar.jpg",
    "address":"Ostertraße 6 , 26548 Norderney",
    "opening hours":"18:00 - 02:00",
    "tags":"",
    "features":"",
    "comments":333,
    "rating":4,
    "price":"",
    "web":"",
    "menu":"",
    "phone":"",
    "facebook":"https://www.facebook.com/pages/Haifischbar/164858670217431",
    "instagram":"",
    "booking":"",
    "suitability":"",
    "weather_condition":"",
    "popularity":""
    }
  },
  {
    "type": "Feature",
    "geometry": {
       "type": "Point",
       "coordinates":  [ 7.146080874379286,53.70574999900882 ]
    },
    "properties": {
    "id":36,
    "name":"Atelier Art & Bar",
    "category":"essen ",
    "subcategory":"bars",
    "description":"Die Atelier Art & Bar auf Norderney verbindet Kunst, Kultur und Genuss auf einzigartige Weise. In stilvollem Ambiente können Gäste kreative Kunstwerke bewundern, während sie exzellente Cocktails, ausgewählte Weine und kleine Köstlichkeiten genießen. Regelmäßige Kunstausstellungen, Lesungen und Musikveranstaltungen machen die Location zu einem Treffpunkt für Kulturbegeisterte. Das Atelier Art & Bar ist ein besonderer Ort, der Kunst und Lebensfreude auf Norderney perfekt vereint.",
    "icon":"",
    "image":"https://cdn.prod.website-files.com/670661a65d47d9da870f3d66/6793a2d61af2782efc460c0f_atelier%20bar.jpg",
    "address":"Am Kurtheater 2, 26548 Norderney",
    "opening hours":"",
    "tags":"",
    "features":"",
    "comments":194,
    "rating":4.7,
    "price":"",
    "web":"",
    "menu":"",
    "phone":"",
    "facebook":"",
    "instagram":"https://www.instagram.com/atelier_bar_norderney/",
    "booking":"",
    "suitability":"",
    "weather_condition":"",
    "popularity":""
    }
  },
  {
    "type": "Feature",
    "geometry": {
       "type": "Point",
       "coordinates":  [ 7.1420671,53.7009696 ]
    },
    "properties": {
    "id":37,
    "name":"Weststrand",
    "category":"freizeit",
    "subcategory":"straende",
    "description":"Der Weststrand von Norderney ist ein idealer Ort für Familien. Mit seiner Nähe zum Stadtzentrum bietet er einen leichten Zugang und verfügt über Strandkörbe sowie sanitäre Einrichtungen. Der flach abfallende Sandstrand macht ihn perfekt für Kinder, während Wassersportler die Wellen genießen können. Hier lässt sich ein erholsamer Tag mit Blick auf den Sonnenuntergang ausklingen.",
    "icon":"",
    "image":"",
    "address":"",
    "opening hours":"",
    "tags":"",
    "features":"",
    "comments":null,
    "rating":null,
    "price":"",
    "web":"",
    "menu":"",
    "phone":"",
    "facebook":"",
    "instagram":"",
    "booking":"",
    "suitability":"",
    "weather_condition":"",
    "popularity":""
    }
  },
  {
    "type": "Feature",
    "geometry": {
       "type": "Point",
       "coordinates":  [ 7.1583436,53.7155271 ]
    },
    "properties": {
    "id":38,
    "name":"Nordstrand",
    "category":"freizeit",
    "subcategory":"straende",
    "description":"Der Nordstrand von Norderney ist der größte Strand der Insel und ideal für aktive Urlauber sowie Ruhesuchende. Er bietet viel Platz für Spaziergänge, Strandspiele und Sonnenbaden, während Strandkörbe und gastronomische Angebote für Komfort sorgen. Familien schätzen den flachen Zugang zum Wasser und die zahlreichen Freizeitmöglichkeiten. Auch Wassersportler finden hier optimale Bedingungen für Aktivitäten wie Kitesurfen oder Windsurfen.",
    "icon":"",
    "image":"",
    "address":"",
    "opening hours":"",
    "tags":"",
    "features":"",
    "comments":null,
    "rating":null,
    "price":"",
    "web":"",
    "menu":"",
    "phone":"",
    "facebook":"",
    "instagram":"",
    "booking":"",
    "suitability":"",
    "weather_condition":"",
    "popularity":""
    }
  },
  {
    "type": "Feature",
    "geometry": {
       "type": "Point",
       "coordinates":  [ 7.208630225336856,53.722991505513455 ]
    },
    "properties": {
    "id":39,
    "name":"Weiße Düne",
    "category":"freizeit",
    "subcategory":"straende",
    "description":"Der Strand Weiße Düne ist ein malerischer Ort mit feinem, weißen Sand, der sowohl für Familien mit Kindern als auch für Erholungssuchende geeignet ist. Ein Spielplatz bietet den Kleinen Spaß und Abwechslung, während Strandkörbe für entspanntes Verweilen sorgen. Ein charmantes Strandlokal lädt mit regionalen Spezialitäten und kühlen Getränken zum Genießen ein. Ideal für ausgedehnte Spaziergänge, entspanntes Sonnenbaden oder gemeinsame Stunden mit der Familie. Perfekt für alle, die Ruhe und Komfort miteinander verbinden möchten.",
    "icon":"",
    "image":"",
    "address":"",
    "opening hours":"",
    "tags":"",
    "features":"",
    "comments":null,
    "rating":null,
    "price":"",
    "web":"",
    "menu":"",
    "phone":"",
    "facebook":"",
    "instagram":"",
    "booking":"",
    "suitability":"",
    "weather_condition":"",
    "popularity":""
    }
  },
  {
    "type": "Feature",
    "geometry": {
       "type": "Point",
       "coordinates":  [ 7.241246581888103,53.72301864488182 ]
    },
    "properties": {
    "id":40,
    "name":"Oase",
    "category":"freizeit",
    "subcategory":"straende",
    "description":"Etwa sieben Kilometer östlich der Stadtmitte liegt der Oase Strand, ein malerischer Ort, der besonders für Familien und Paare geeignet ist. Der Strand bietet sowohl einen Bereich mit normaler Badebekleidung im westlichen Teil als auch einen separaten FKK-Bereich im östlichen Abschnitt, der Ruhesuchenden ein ungestörtes Ambiente ermöglicht. Mit Strandkörben, sicheren Badezonen für Kinder und einem nahegelegenen Restaurant, das regionale Speisen und erfrischende Getränke serviert, ist der Oase Strand ideal für entspannte Tage in schöner Umgebung.",
    "icon":"",
    "image":"",
    "address":"",
    "opening hours":"",
    "tags":"",
    "features":"",
    "comments":null,
    "rating":null,
    "price":"",
    "web":"",
    "menu":"",
    "phone":"",
    "facebook":"",
    "instagram":"",
    "booking":"",
    "suitability":"",
    "weather_condition":"",
    "popularity":""
    }
  },
  {
    "type": "Feature",
    "geometry": {
       "type": "Point",
       "coordinates":  [ 7.1519159,53.7112007 ]
    },
    "properties": {
    "id":42,
    "name":"Escape Room Norderney",
    "category":"freizeit",
    "subcategory":"indoor_aktivitaeten",
    "description":"Der Escape Room Norderney ist die perfekte Aktivität für Abenteurer und Rätselliebhaber. Mit spannenden Themenräumen und kniffligen Aufgaben bietet er ein einzigartiges Erlebnis, das Teamgeist und Kreativität erfordert. Ob als Familie, Gruppe von Freunden oder Arbeitskollegen – gemeinsam müsst ihr versteckte Hinweise finden, Codes knacken und Rätsel lösen, um dem Raum rechtzeitig zu entkommen. Die detailreichen Kulissen und die packende Atmosphäre sorgen für Nervenkitzel und Spaß zugleich. Egal ob bei schlechtem Wetter oder als aufregende Ergänzung zum Inselurlaub – der Escape Room Norderney garantiert unvergessliche Momente!",
    "icon":"",
    "image":"",
    "address":"Tannenstraße 14, 26548 Norderney",
    "opening hours":"",
    "tags":"",
    "features":"",
    "comments":null,
    "rating":null,
    "price":"",
    "web":"https://www.escape-room-norderney.de/",
    "menu":"",
    "phone":"+49 (0) 172 2066005",
    "facebook":"",
    "instagram":"https://www.instagram.com/escaperoom_norderney/",
    "booking":"",
    "suitability":"",
    "weather_condition":"",
    "popularity":""
    }
  },
  {
    "type": "Feature",
    "geometry": {
       "type": "Point",
       "coordinates":  { }
    },
    "properties": {
    "id":43,
    "name":"Spielplatz am Strand",
    "category":"",
    "subcategory":"",
    "description":"",
    "icon":"",
    "image":"",
    "address":"",
    "opening hours":"",
    "tags":"",
    "features":"",
    "comments":null,
    "rating":null,
    "price":"",
    "web":"",
    "menu":"",
    "phone":"",
    "facebook":"",
    "instagram":"",
    "booking":"",
    "suitability":"",
    "weather_condition":"",
    "popularity":""
    }
  },
  {
    "type": "Feature",
    "geometry": {
       "type": "Point",
       "coordinates":  { }
    },
    "properties": {
    "id":44,
    "name":"Trampolin",
    "category":"",
    "subcategory":"",
    "description":"",
    "icon":"",
    "image":"",
    "address":"",
    "opening hours":"",
    "tags":"",
    "features":"",
    "comments":null,
    "rating":null,
    "price":"",
    "web":"",
    "menu":"",
    "phone":"",
    "facebook":"",
    "instagram":"",
    "booking":"",
    "suitability":"",
    "weather_condition":"",
    "popularity":""
    }
  },
  {
    "type": "Feature",
    "geometry": {
       "type": "Point",
       "coordinates":  [ 7.149427180728063,53.71232805261603 ]
    },
    "properties": {
    "id":45,
    "name":"Minigolf am Januskopf",
    "category":"freizeit",
    "subcategory":"outdoor_aktivitaeten",
    "description":"Minigolf am Januskopf bietet Spaß und Unterhaltung für die ganze Familie inmitten einer malerischen Umgebung. Die liebevoll gestaltete Anlage liegt unweit des Strandes und begeistert mit abwechslungsreichen Bahnen, die sowohl für Anfänger als auch für geübte Spieler eine Herausforderung darstellen. Während der Spielpausen können Sie die frische Nordseeluft genießen und die Aussicht auf die umliegende Natur bewundern. Ob als entspannter Zeitvertreib oder als sportlicher Wettkampf – eine Runde Minigolf am Januskopf ist die perfekte Freizeitaktivität für Groß und Klein. ",
    "icon":"",
    "image":"https://cdn.prod.website-files.com/670661a65d47d9da870f3d66/679b246a79e9e11c06b10f25_Minigolf.jpg",
    "address":"Am Januskopf, 26548 Norderney",
    "opening hours":"",
    "tags":"",
    "features":"",
    "comments":null,
    "rating":null,
    "price":"Pro Person: 6€, Kinder bis 10 Jahre: 5€",
    "web":"https://www.norderney.cc/minigolf-auf-norderney",
    "menu":"",
    "phone":"",
    "facebook":"",
    "instagram":"",
    "booking":"",
    "suitability":"",
    "weather_condition":"",
    "popularity":""
    }
  },
  {
    "type": "Feature",
    "geometry": {
       "type": "Point",
       "coordinates":  [ 7.1596060828734664,53.711074588289 ]
    },
    "properties": {
    "id":46,
    "name":"Sternwarte Norderney",
    "category":"freizeit",
    "subcategory":"outdoor_aktivitaeten",
    "description":"Die Sternwarte Norderney entführt Besucher in die faszinierende Welt der Astronomie. Abseits von störendem Stadtlicht bietet sie einen klaren Blick auf den Nachthimmel und die beeindruckenden Sterne über der Insel. Bei spannenden Führungen und Vorträgen erfahren Gäste mehr über Planeten, Galaxien und kosmische Phänomene. Besonders beeindruckend sind die Beobachtungen durch das leistungsstarke Teleskop, das einen Blick in die unendlichen Weiten des Universums ermöglicht. Ob als lehrreicher Ausflug für die ganze Familie oder als romantisches Highlight für Paare – die Sternwarte ist ein Ort, der zum Staunen und Träumen einlädt.",
    "icon":"",
    "image":"https://cdn.prod.website-files.com/670661a65d47d9da870f3d66/679b240a0f92a592a5e7114b_Sternwarte.jpg",
    "address":"Am Kap 31, 26548 Norderney",
    "opening hours":"",
    "tags":"",
    "features":"",
    "comments":null,
    "rating":null,
    "price":"",
    "web":"http://www.sternwarte-norderney.de/kontakt.html",
    "menu":"",
    "phone":"",
    "facebook":"",
    "instagram":"",
    "booking":"",
    "suitability":"",
    "weather_condition":"",
    "popularity":""
    }
  },
  {
    "type": "Feature",
    "geometry": {
       "type": "Point",
       "coordinates":  [ 7.1742946968602705,53.71422413869108 ]
    },
    "properties": {
    "id":47,
    "name":"Reitschule Junkmann",
    "category":"freizeit",
    "subcategory":"outdoor_aktivitaeten",
    "description":"Die Reitschule Junkmann auf Norderney bietet Reitbegeisterten jeden Alters unvergessliche Erlebnisse. Mit professionellen Trainern und liebevoll ausgebildeten Pferden können Anfänger und Fortgeschrittene gleichermaßen ihre Reitkünste verbessern oder einfach die Freude am Reiten genießen. Die Reitschule liegt inmitten der idyllischen Natur der Insel und ermöglicht Ausritte durch die Dünenlandschaft und entlang des Strandes – ein Highlight für jeden Pferdefreund. Zudem werden Kinderreitstunden und Ferienprogramme angeboten, die den jüngsten Besuchern spielerisch den Umgang mit Pferden näherbringen. Ein Ort, der tierische Freundschaften und besondere Erinnerungen schafft.",
    "icon":"",
    "image":"https://cdn.prod.website-files.com/670661a65d47d9da870f3d66/679b2408ce202ec14360b93e_reitschule%20junkmann.jpg",
    "address":"Karl-Rieger-Weg 1a, 26548 Norderney",
    "opening hours":"",
    "tags":"",
    "features":"",
    "comments":null,
    "rating":null,
    "price":"",
    "web":"http://www.reitschule-junkmann.de/",
    "menu":"",
    "phone":"",
    "facebook":"",
    "instagram":"",
    "booking":"",
    "suitability":"",
    "weather_condition":"",
    "popularity":""
    }
  },
  {
    "type": "Feature",
    "geometry": {
       "type": "Point",
       "coordinates":  [ 7.174763237730533,53.71142228722324 ]
    },
    "properties": {
    "id":48,
    "name":"Norderneyer Brauhaus",
    "category":"freizeit",
    "subcategory":"outdoor_aktivitaeten",
    "description":"Das Norderneyer Brauhaus ist ein Muss für alle, die die Kunst des Bierbrauens schätzen und einzigartige Geschmackserlebnisse suchen. In stilvollem, maritimem Ambiente werden hier frisch gebraute Bierspezialitäten angeboten, die mit regionalen Zutaten und viel Liebe zum Detail hergestellt werden. Ob ein kühles Pils, ein würziges Dunkelbier oder saisonale Spezialitäten – das Brauhaus überzeugt mit Vielfalt und Qualität. Neben den köstlichen Getränken lockt die Küche mit deftigen Brauhausklassikern und frischen Gerichten. Regelmäßige Events wie Bierverkostungen und Livemusik machen das Norderneyer Brauhaus zu einem lebendigen Treffpunkt für Einheimische und Besucher.",
    "icon":"",
    "image":"https://cdn.prod.website-files.com/670661a65d47d9da870f3d66/679b1ca684e4027bc2a455d5_brauhalle.jpg",
    "address":"Im Gewerbegelände 18, 26548 Norderney",
    "opening hours":"",
    "tags":"",
    "features":"",
    "comments":null,
    "rating":null,
    "price":"",
    "web":"http://www.norderneyer-bier.de/",
    "menu":"",
    "phone":"04932 935087",
    "facebook":"https://www.facebook.com/NorderneyerBrauhaus",
    "instagram":"https://www.instagram.com/norderneyer.brauhaus/",
    "booking":"",
    "suitability":"",
    "weather_condition":"",
    "popularity":""
    }
  },
  {
    "type": "Feature",
    "geometry": {
       "type": "Point",
       "coordinates":  [ 7.156669138407601,53.706230668308386 ]
    },
    "properties": {
    "id":49,
    "name":"Windmühle Seiden Rüst",
    "category":"inselhighlights",
    "subcategory":"sehenswuerdigkeiten",
    "description":"Die historische Windmühle Norderney, auch bekannt als \"Selden Rüst\", ist ein beeindruckendes Wahrzeichen der Insel. Sie wurde im Jahr 1862 erbaut und diente einst als Kornmühle, bevor sie später zu einer Galerieholländermühle umgebaut wurde. Heute ist die liebevoll restaurierte Mühle ein beliebtes Fotomotiv und ein Zeugnis der traditionellen Handwerkskunst. Eingebettet in die wunderschöne Landschaft der Insel, lädt die Windmühle zu einem Ausflug in die Geschichte ein. Ein Besuch lohnt sich besonders für Kulturinteressierte und alle, die Norderney von einer anderen Seite entdecken möchten",
    "icon":"",
    "image":"https://cdn.prod.website-files.com/670661a65d47d9da870f3d66/679b1ca636db5451969f95b5_Windmühle.jpg",
    "address":"Marienstr. 24 · 26548 Norderney",
    "opening hours":"",
    "tags":"",
    "features":"",
    "comments":null,
    "rating":null,
    "price":"",
    "web":"",
    "menu":"",
    "phone":"",
    "facebook":"",
    "instagram":"",
    "booking":"",
    "suitability":"",
    "weather_condition":"",
    "popularity":""
    }
  },
  {
    "type": "Feature",
    "geometry": {
       "type": "Point",
       "coordinates":  [ 7.150256068185135,53.712600772779915 ]
    },
    "properties": {
    "id":50,
    "name":"Segwey-Inseltour",
    "category":"freizeit",
    "subcategory":"outdoor_aktivitaeten",
    "description":"Entdecken Sie Norderney auf einer unvergesslichen dreistündigen Segway-Inseltour! Nach einer persönlichen Einweisung erkunden Sie die Insel mit einem modernen Segway i2 oder einem Scuddy, begleitet von einem erfahrenen Landtours-Tourguide. Die Tour ist für alle ab 14 Jahren geeignet und bietet unterwegs eine halbstündige Pause, um die malerische Umgebung zu genießen. Snacks und Getränke sind inklusive, ebenso wie kostenlose Fotos und Videos als Erinnerung an das Erlebnis. Ob allein, mit Familie oder Freunden – diese Tour ist ein Highlight für alle, die die Insel aktiv und bequem entdecken möchten.",
    "icon":"",
    "image":"",
    "address":"Am Januskopf 8, Norderney",
    "opening hours":"",
    "tags":"",
    "features":"",
    "comments":null,
    "rating":null,
    "price":"",
    "web":"https://landtours-norderney.de/tour-info/",
    "menu":"",
    "phone":"",
    "facebook":"",
    "instagram":"",
    "booking":"",
    "suitability":"",
    "weather_condition":"",
    "popularity":""
    }
  },
  {
    "type": "Feature",
    "geometry": {
       "type": "Point",
       "coordinates":  [ 7.1555705070495605,53.7064208984375 ]
    },
    "properties": {
    "id":51,
    "name":"Outdoor Lasertag",
    "category":"freizeit",
    "subcategory":"outdoor_aktivitaeten",
    "description":"Action, Strategie und Adrenalin – Outdoor Lasertag auf Norderney verspricht spannende Gefechte unter freiem Himmel. Ob im Schnee oder bei strahlendem Sonnenschein, hier wird jede Runde zu einem einzigartigen Erlebnis. Gespielt wird im Spielpark Kap Hoorn, wo Teams von 2 bis 10 Personen gegeneinander antreten und sich mit moderner Leihausrüstung spannende Matches liefern. Jede Runde dauert 10 Minuten, sodass genügend Zeit für taktische Manöver bleibt. Perfekt für Familien, Freunde oder Teams ab 8 Jahren, die ein actionreiches Abenteuer in der Natur suchen!",
    "icon":"",
    "image":"",
    "address":"Mühlenstraße 20, 26548 Norderney",
    "opening hours":"",
    "tags":"",
    "features":"",
    "comments":null,
    "rating":null,
    "price":"",
    "web":"https://www.freizeit-norderney.de/lasertag/",
    "menu":"",
    "phone":"",
    "facebook":"",
    "instagram":"",
    "booking":"",
    "suitability":"",
    "weather_condition":"",
    "popularity":""
    }
  },
  {
    "type": "Feature",
    "geometry": {
       "type": "Point",
       "coordinates":  [ 7.1449488,53.705281 ]
    },
    "properties": {
    "id":52,
    "name":"Geführte Fahrradtouren",
    "category":"freizeit",
    "subcategory":"outdoor_aktivitaeten",
    "description":"Erleben Sie die schönsten Seiten Norderneys bei der Classic Fahrradtour – eine rund 10 km lange Entdeckungstour durch die beeindruckende Dünenlandschaft und zu den bekanntesten Hot-Spots der Insel. In 2,5 Stunden führen einheimische Guides die Teilnehmer durch den West- und Ostteil Norderneys und vermitteln spannende Einblicke in die Geschichte und Gegenwart der Insel.",
    "icon":"",
    "image":"",
    "address":"Adolfsreihe 6. 26548 Norderney",
    "opening hours":"",
    "tags":"",
    "features":"",
    "comments":null,
    "rating":null,
    "price":"",
    "web":"https://www.freizeit-norderney.de/fahrradtour/",
    "menu":"",
    "phone":"",
    "facebook":"",
    "instagram":"",
    "booking":"",
    "suitability":"",
    "weather_condition":"",
    "popularity":""
    }
  }
]
}